{
"type": "FeatureCollection",
"name": "full_race_track",
"crs": { "type": "name", "properties": { "name": "urn:ogc:def:crs:OGC:1.3:CRS84" } },
"features": [
{ "type": "Feature", "properties": { "name": "Race Track", "width": 15 }, "geometry": { "type": "Polygon", "coordinates": [ [ [ -89.560376151675015, 46.036201816787454 ], [ -89.571819522879267, 46.037815979285348 ], [ -89.583263182406185, 46.039409509760887 ], [ -89.594707109648326, 46.040982423142246 ], [ -89.606151283998273, 46.042534734357673 ], [ -89.617595684848553, 46.044066458335337 ], [ -89.629040291591693, 46.045577610003456 ], [ -89.640485083620277, 46.047068204290241 ], [ -89.651930040326803, 46.048538256123862 ], [ -89.663375141103913, 46.049987780432573 ], [ -89.67482036534409, 46.051416792144551 ], [ -89.686265692439903, 46.052825306187998 ], [ -89.697711101783881, 46.054213337491127 ], [ -89.709156572768563, 46.055580900982115 ], [ -89.720602084786577, 46.056928011589214 ], [ -89.732047617230421, 46.058254684240602 ], [ -89.74349314949265, 46.059560933864475 ], [ -89.754938660965792, 46.060846775389052 ], [ -89.766384131042415, 46.062112223742538 ], [ -89.777829539115075, 46.063357293853123 ], [ -89.789274864576342, 46.064582000649018 ], [ -89.800720086818757, 46.06578635905845 ], [ -89.812165185234832, 46.066970384009579 ], [ -89.823610139217109, 46.068134090430632 ], [ -89.835054928158215, 46.069277493249814 ], [ -89.846499531450661, 46.070400607395349 ], [ -89.857943928486975, 46.071503447795394 ], [ -89.869388098659741, 46.072586029378201 ], [ -89.880832021361456, 46.073648367071925 ], [ -89.892275675984749, 46.074690475804836 ], [ -89.903719041922102, 46.07571237050508 ], [ -89.915162098566114, 46.076714066100877 ], [ -89.926604825309326, 46.077695577520444 ], [ -89.938047201544222, 46.078656919691973 ], [ -89.949489206663458, 46.079598107543667 ], [ -89.960930820059517, 46.080519156003739 ], [ -89.972372021124983, 46.081420080000399 ], [ -89.983812789252397, 46.082300894461831 ], [ -89.995253103834244, 46.083161614316246 ], [ -90.006692944263179, 46.084002254491871 ], [ -90.018132289931685, 46.084822829916874 ], [ -90.029571120232333, 46.085623355519488 ], [ -90.041009414557692, 46.08640384622791 ], [ -90.05244715230026, 46.087164316970302 ], [ -90.06388431285265, 46.08790478267494 ], [ -90.075320875607375, 46.088625258269992 ], [ -90.086756819957003, 46.089325758683657 ], [ -90.098192125294034, 46.090006298844145 ], [ -90.109626771011108, 46.090666893679668 ], [ -90.121060736500709, 46.091307558118416 ], [ -90.132494001155379, 46.091928307088608 ], [ -90.143926544367716, 46.092529155518434 ], [ -90.155358345530232, 46.093110118336099 ], [ -90.166789384035511, 46.093671210469843 ], [ -90.178219639276094, 46.09421244684782 ], [ -90.189649090644508, 46.094733842398256 ], [ -90.201077717533309, 46.095235412049362 ], [ -90.212505499335052, 46.095717170729309 ], [ -90.223932415442306, 46.096179133366356 ], [ -90.235358445247627, 46.096621314888672 ], [ -90.246783568143513, 46.097043730224456 ], [ -90.258207763522563, 46.097446394301926 ], [ -90.269631010777275, 46.097829322049279 ], [ -90.281053289300274, 46.098192528394733 ], [ -90.292474578484061, 46.098536028266487 ], [ -90.303894857721204, 46.098859836592737 ], [ -90.315314106404259, 46.099163968301681 ], [ -90.326732303925695, 46.099448438321524 ], [ -90.338149429678182, 46.099713261580504 ], [ -90.349565463054219, 46.099958453006785 ], [ -90.360980383446361, 46.100184027528599 ], [ -90.372394170247148, 46.100390000074128 ], [ -90.383806802849136, 46.100576385571586 ], [ -90.395218260644867, 46.100743198949182 ], [ -90.406628523026896, 46.100890455135115 ], [ -90.418037569387792, 46.101018169057589 ], [ -90.429445379120068, 46.101126355644801 ], [ -90.440851931616336, 46.101215029824957 ], [ -90.452257206269067, 46.101284206526287 ], [ -90.463661182470872, 46.101333900676977 ], [ -90.475063839614279, 46.101364127205215 ], [ -90.486465157091814, 46.101374901039215 ], [ -90.497865114296076, 46.1013662371072 ], [ -90.509263690619591, 46.101338150337355 ], [ -90.520660865454914, 46.101290655657891 ], [ -90.532056618194588, 46.101223767997013 ], [ -90.543450928231138, 46.101137502282903 ], [ -90.554843774957178, 46.101031873443809 ], [ -90.566235137765219, 46.100906896407899 ], [ -90.577624996047817, 46.100762586103393 ], [ -90.589013329197542, 46.100598957458494 ], [ -90.600400116606863, 46.100416025401394 ], [ -90.611785337668422, 46.10021380486031 ], [ -90.623168971774746, 46.099992310763447 ], [ -90.634550998318389, 46.099751558038996 ], [ -90.645931396691878, 46.099491561615189 ], [ -90.657310146287742, 46.09921233642018 ], [ -90.668687226498591, 46.098913897382225 ], [ -90.680062616716967, 46.098596259429506 ], [ -90.691436296335397, 46.098259437490242 ], [ -90.702808244746421, 46.097903446492609 ], [ -90.714178441342597, 46.097528301364818 ], [ -90.725546865516506, 46.097134017035089 ], [ -90.736913496660662, 46.096720608431625 ], [ -90.748278314167649, 46.096288090482624 ], [ -90.75964129742998, 46.095836478116283 ], [ -90.771002425840194, 46.095365786260807 ], [ -90.782361678790892, 46.094876029844414 ], [ -90.793719035674627, 46.094367223795317 ], [ -90.805074475883913, 46.093839383041676 ], [ -90.816427978811319, 46.093292522511746 ], [ -90.82777952384933, 46.092726657133689 ], [ -90.839129090390614, 46.092141801835737 ], [ -90.850476657827642, 46.091537971546074 ], [ -90.861822205552997, 46.090915181192926 ], [ -90.873165712959192, 46.090273445704497 ], [ -90.884507159438797, 46.089612780008963 ], [ -90.895846524384382, 46.08893319903455 ], [ -90.907183787188501, 46.088234717709476 ], [ -90.918518927243653, 46.087517350961903 ], [ -90.929851923942465, 46.086781113720079 ], [ -90.941182756677378, 46.086026020912165 ], [ -90.952511404841033, 46.085252087466415 ], [ -90.963837847825985, 46.084459328310992 ], [ -90.975162065024719, 46.08364775837412 ], [ -90.986484035829847, 46.082817392584005 ], [ -90.997803739633838, 46.081968245868822 ], [ -91.009121155829348, 46.081100333156819 ], [ -91.020436263808847, 46.080213669376178 ], [ -91.031749042964961, 46.079308269455105 ], [ -91.043059472690175, 46.078384148321803 ], [ -91.054367532377, 46.077441320904448 ], [ -91.065673201418093, 46.076479802131296 ], [ -91.076976459205966, 46.075499606930542 ], [ -91.088277285133159, 46.074500750230364 ], [ -91.099575658592215, 46.073483246958993 ], [ -91.110871558975674, 46.072447112044578 ], [ -91.122164965676092, 46.071392360415381 ], [ -91.133455858086066, 46.070319006999611 ], [ -91.144744215598095, 46.069227066725432 ], [ -91.156030017604763, 46.068116554521083 ], [ -91.167313243498583, 46.066987485314726 ], [ -91.178593872672124, 46.065839874034594 ], [ -91.18987188451797, 46.064673735608913 ], [ -91.201147258428605, 46.063489084965838 ], [ -91.212419973796642, 46.062285937033614 ], [ -91.223690010014536, 46.061064306740406 ], [ -91.234957346474971, 46.059824209014451 ], [ -91.246221962570402, 46.058565658783955 ], [ -91.257483837693428, 46.057288670977101 ], [ -91.268742951236575, 46.055993260522101 ], [ -91.279999282592371, 46.054679442347144 ], [ -91.291252811153413, 46.053347231380478 ], [ -91.302503516312214, 46.051996642550264 ], [ -91.313751377461358, 46.050627690784737 ], [ -91.3249963739934, 46.049240391012084 ], [ -91.336238485300825, 46.047834758160484 ], [ -91.34747769077623, 46.046410807158182 ], [ -91.358713969812186, 46.044968552933383 ], [ -91.369947301801218, 46.043508010414271 ], [ -91.381177666135869, 46.04202919452905 ], [ -91.392405042208694, 46.040532120205931 ], [ -91.403629409412247, 46.039016802373119 ], [ -91.41485074713907, 46.037483255958819 ], [ -91.426069034781747, 46.035931495891226 ], [ -91.437284251732819, 46.034361537098555 ], [ -91.448496377384757, 46.032773394509 ], [ -91.459705391130214, 46.031167083050782 ], [ -91.470911272361704, 46.029542617652083 ], [ -91.482114000471782, 46.027900013241137 ], [ -91.493313554852975, 46.026239284746111 ], [ -91.504509914897838, 46.024560447095226 ], [ -91.515703059998955, 46.022863515216699 ], [ -91.526892969548854, 46.021148504038727 ], [ -91.538079622940074, 46.019415428489495 ], [ -91.549262999565187, 46.017664303497234 ], [ -91.560443078816689, 46.015895143990129 ], [ -91.571619840087223, 46.014107964896397 ], [ -91.5827932627693, 46.01230278114425 ], [ -91.593963326255434, 46.010479607661864 ], [ -91.605130009938208, 46.008638459377465 ], [ -91.616293293210148, 46.00677935121923 ], [ -91.627453155463812, 46.004902298115397 ], [ -91.638609576091824, 46.003007314994171 ], [ -91.649762534486598, 46.001094416783729 ], [ -91.660912010040846, 45.999163618412297 ], [ -91.672057982146924, 45.997214934808056 ], [ -91.683200430197573, 45.995248380899241 ], [ -91.694339333585233, 45.993263971614034 ], [ -91.705474671702447, 45.99126172188064 ], [ -91.716606423941855, 45.989241646627278 ], [ -91.727734569695883, 45.98720376078213 ], [ -91.738859088357202, 45.985148079273415 ], [ -91.749979959318296, 45.983074617029345 ], [ -91.761097161971705, 45.980983388978096 ], [ -91.772210675710056, 45.978874410047922 ], [ -91.783320479925777, 45.976747695166956 ], [ -91.794426554011523, 45.974603259263475 ], [ -91.805528877359819, 45.972441117265632 ], [ -91.81662742936318, 45.970261284101646 ], [ -91.827722189414217, 45.968063774699743 ], [ -91.838813136905415, 45.965848603988093 ], [ -91.849900251229371, 45.96361578689492 ], [ -91.860983511778613, 45.961365338348429 ], [ -91.872062897945668, 45.959097273276804 ], [ -91.883138389123118, 45.956811606608269 ], [ -91.894209964703549, 45.954508353271024 ], [ -91.905277604079458, 45.952187528193285 ], [ -91.916341286643402, 45.949849146303237 ], [ -91.927400991787934, 45.947493222529069 ], [ -91.938456698905625, 45.945119771799035 ], [ -91.949508387388988, 45.942728809041299 ], [ -91.960556036630621, 45.940320349184084 ], [ -91.971599626023036, 45.937894407155589 ], [ -91.982639134958774, 45.935450997884004 ], [ -91.993674542830433, 45.932990136297548 ], [ -92.004705829030542, 45.930511837324438 ], [ -92.015732972951639, 45.928016115892852 ], [ -92.026755953986267, 45.925502986931015 ], [ -92.037774751526996, 45.922972465367096 ], [ -92.048789344966366, 45.920424566129348 ], [ -92.059799713696961, 45.917859304145949 ], [ -92.07080583711128, 45.915276694345096 ], [ -92.081807694601906, 45.91267675165502 ], [ -92.092805265561367, 45.910059491003885 ], [ -92.103798529382232, 45.907424927319944 ], [ -92.114787465457042, 45.904773075531374 ], [ -92.125772053178366, 45.902103950566357 ], [ -92.136752271938732, 45.89941756735314 ], [ -92.147728101130667, 45.896713940819893 ], [ -92.158699520146783, 45.893993085894863 ], [ -92.169666508379606, 45.891255017506211 ], [ -92.18062904522165, 45.888499750582149 ], [ -92.191587110065527, 45.885727300050902 ], [ -92.202540682303706, 45.882937680840641 ], [ -92.213489741328829, 45.880130907879611 ], [ -92.224434266533393, 45.877306996096003 ], [ -92.235374237309969, 45.874465960418 ], [ -92.246309633051098, 45.871607815773828 ], [ -92.257240433149278, 45.868732577091663 ], [ -92.268166616997163, 45.865840259299745 ], [ -92.27908816398724, 45.862930877326264 ], [ -92.290005053512076, 45.86000444609941 ], [ -92.300917264964198, 45.857060980547409 ], [ -92.311824777736149, 45.854100495598452 ], [ -92.322727571220568, 45.851123006180757 ], [ -92.333625624809912, 45.848128527222514 ], [ -92.344518917896735, 45.845117073651934 ], [ -92.355407429873651, 45.842088660397216 ], [ -92.366291140133129, 45.839043302386557 ], [ -92.377170028067809, 45.835981014548182 ], [ -92.388044073070176, 45.832901811810295 ], [ -92.3989132545328, 45.82980570910108 ], [ -92.409777551848236, 45.826692721348749 ], [ -92.420636944408983, 45.823562863481477 ], [ -92.431491411607695, 45.820416150427548 ], [ -92.442340932836842, 45.817252597115086 ], [ -92.453185487488994, 45.814072218472347 ], [ -92.464025054956736, 45.810875029427521 ], [ -92.474859614632521, 45.807661044908777 ], [ -92.485689145909021, 45.804430279844361 ], [ -92.496513628178718, 45.801182749162471 ], [ -92.507333040834155, 45.797918467791298 ], [ -92.518147363267914, 45.794637450659053 ], [ -92.528956574872524, 45.79133971269394 ], [ -92.539760655040567, 45.788025268824164 ], [ -92.550559583164556, 45.784694133977929 ], [ -92.561353338637048, 45.781346323083433 ], [ -92.57214190085061, 45.777981851068894 ], [ -92.582925249197771, 45.774600732862488 ], [ -92.593703363071128, 45.771202983392463 ], [ -92.604476221863166, 45.767788617586987 ], [ -92.615243804966468, 45.764357650374286 ], [ -92.626006091773604, 45.760910096682551 ], [ -92.636763061677058, 45.757445971439971 ], [ -92.647514694069457, 45.753965289574793 ], [ -92.658260968343313, 45.750468066015181 ], [ -92.669001863891182, 45.746954315689351 ], [ -92.679737360105634, 45.743424053525544 ], [ -92.690467436379166, 45.739877294451887 ], [ -92.701192072104405, 45.736314053396661 ], [ -92.711911246673822, 45.73273434528803 ], [ -92.722624939479999, 45.72913818505419 ], [ -92.73333312991555, 45.725525587623395 ], [ -92.744035797372902, 45.721896567923785 ], [ -92.75473292124471, 45.718251140883609 ], [ -92.765424480923457, 45.714589321431049 ], [ -92.776110455801742, 45.710911124494316 ], [ -92.786790825272107, 45.70721656500163 ], [ -92.797465568727034, 45.703505657881152 ], [ -92.80813466555918, 45.69977841806115 ], [ -92.818798095161029, 45.696034860469766 ], [ -92.829455836925121, 45.692275000035231 ], [ -92.840107870244083, 45.688498851685779 ], [ -92.850754174510371, 45.684706430349543 ], [ -92.861394729116611, 45.680897750954799 ], [ -92.872029513455288, 45.677072828429715 ], [ -92.882658506919, 45.673231677702475 ], [ -92.893281688900302, 45.669374313701347 ], [ -92.903899038791678, 45.665500751354472 ], [ -92.914510535985769, 45.661611005590089 ], [ -92.92511615987506, 45.657705091336396 ], [ -92.935715889852105, 45.653783023521576 ], [ -92.946309705309531, 45.649844817073877 ], [ -92.95689758563978, 45.645890486921459 ], [ -92.967479510235449, 45.641920047992542 ], [ -92.978055458489109, 45.637933515215344 ], [ -92.988625409793272, 45.633930903518042 ], [ -92.999189343540564, 45.629912227828882 ], [ -93.009747239123413, 45.625877503076019 ], [ -93.020299075934474, 45.621826744187679 ], [ -93.030844833366245, 45.617759966092073 ], [ -93.041384490811268, 45.613677183717392 ], [ -93.051918027662168, 45.609578411991876 ], [ -93.062445423311416, 45.605463665843665 ], [ -93.072966657151568, 45.60133296020102 ], [ -93.083481708575235, 45.597186309992125 ], [ -93.093990556974873, 45.59302373014517 ], [ -93.104493181743166, 45.588845235588387 ], [ -93.114989562272527, 45.58465084124996 ], [ -93.125479677955596, 45.580440562058094 ], [ -93.135963508184872, 45.576214412941006 ], [ -93.146441032352911, 45.57197240882688 ], [ -93.156912229852324, 45.56771456464395 ], [ -93.167377080075568, 45.563440895320383 ], [ -93.177835562415268, 45.559151415784413 ], [ -93.188287656263952, 45.554846140964237 ], [ -93.198733341014119, 45.550525085788053 ], [ -93.209172596058423, 45.546188265184078 ], [ -93.219605400789334, 45.54183569408049 ], [ -93.230031734599422, 45.53746738740552 ], [ -93.240451576881256, 45.53308336008736 ], [ -93.250864907027335, 45.5286836270542 ], [ -93.2612717044303, 45.524268203234286 ], [ -93.271671948482577, 45.519837103555787 ], [ -93.282065618576851, 45.515390342946915 ], [ -93.292452694105577, 45.510927936335868 ], [ -93.302833154461311, 45.506449898650864 ], [ -93.313206979036678, 45.501956244820114 ], [ -93.323574147224136, 45.497446989771788 ], [ -93.333934638416295, 45.492922148434126 ], [ -93.344288432005712, 45.488381735735317 ], [ -93.354635507384856, 45.483825766603552 ], [ -93.364975843946397, 45.479254255967071 ], [ -93.375309421082775, 45.474667218754043 ], [ -93.38563621818659, 45.470064669892686 ], [ -93.395956214650425, 45.465446624311205 ], [ -93.40626938986675, 45.460813096937798 ], [ -93.41657572322822, 45.45616410270069 ], [ -93.426875194127277, 45.451499656528057 ], [ -93.437167781956532, 45.446819773348103 ], [ -93.447453466108527, 45.442124468089069 ], [ -93.457732225975775, 45.437413755679103 ], [ -93.46800404095093, 45.432687651046471 ], [ -93.478268890426421, 45.42794616911933 ], [ -93.488526753794844, 45.423189324825913 ], [ -93.498777610448798, 45.418417133094422 ], [ -93.509021439780753, 45.413629608853022 ], [ -93.519258221183321, 45.408826767029971 ], [ -93.529487934049001, 45.404008622553434 ], [ -93.539710557770391, 45.399175190351642 ], [ -93.549926071740018, 45.394326485352785 ], [ -93.560134455350422, 45.389462522485054 ], [ -93.570335687994202, 45.384583316676689 ], [ -93.580529749063828, 45.379688882855866 ], [ -93.590716617951898, 45.37477923595079 ], [ -93.60089627405101, 45.369854390889685 ], [ -93.611068696753591, 45.364914362600729 ], [ -93.621233865452325, 45.359959166012153 ], [ -93.631391759539667, 45.354988816052135 ], [ -93.641542358408202, 45.350003327648899 ], [ -93.651685641450513, 45.345002715730651 ], [ -93.661821588059055, 45.339986995225559 ], [ -93.671950177626499, 45.334956181061884 ], [ -93.682071389545314, 45.329910288167788 ], [ -93.692185203208069, 45.324849331471491 ], [ -93.702291598007349, 45.319773325901195 ], [ -93.712390553335624, 45.314682286385093 ], [ -93.722482048585533, 45.309576227851409 ], [ -93.732566063149562, 45.304455165228333 ], [ -93.742642576420295, 45.299319113444078 ], [ -93.752711567790286, 45.294168087426847 ], [ -93.762773016652048, 45.289002102104817 ], [ -93.77282690239818, 45.283821172406249 ], [ -93.782873204421193, 45.278625313259298 ], [ -93.792911902113673, 45.273414539592189 ], [ -93.802942974868145, 45.268188866333126 ], [ -93.812966402077123, 45.262948308410294 ], [ -93.822982163133233, 45.257692880751925 ], [ -93.832990237429001, 45.252422598286202 ], [ -93.842990604356956, 45.247137475941344 ], [ -93.852983243309694, 45.241837528645554 ], [ -93.862968133679658, 45.236522771327017 ], [ -93.872945254859516, 45.231193218913965 ], [ -93.882914586241753, 45.225848886334575 ], [ -93.892876107218967, 45.220489788517078 ], [ -93.902829797183699, 45.215115940389659 ], [ -93.912775635528405, 45.209727356880514 ], [ -93.922713601645782, 45.204324052917876 ], [ -93.932643674928272, 45.198906043429936 ], [ -93.942565834768502, 45.193473343344898 ], [ -93.952480060558969, 45.188025967590967 ], [ -93.962386331692187, 45.182563931096311 ], [ -93.972284627560825, 45.177087248789206 ], [ -93.982174927557352, 45.171595935597807 ], [ -93.992057211074297, 45.166090006450318 ], [ -94.001931457504313, 45.160569476274986 ], [ -94.011797646239799, 45.155034359999945 ], [ -94.021655756673425, 45.149484672553456 ], [ -94.031505768197732, 45.143920428863701 ], [ -94.041347660205204, 45.138341643858894 ], [ -94.051181412088482, 45.132748332467237 ], [ -94.061007003239993, 45.127140509616915 ], [ -94.070824413052406, 45.121518190236159 ], [ -94.080633620918221, 45.115881389253161 ], [ -94.090434606229962, 45.110230121596118 ], [ -94.100227348380287, 45.104564402193269 ], [ -94.110011826761578, 45.098884245972748 ], [ -94.119788020766535, 45.093189667862838 ], [ -94.129555909787612, 45.087480682791693 ], [ -94.139315473217422, 45.081757305687525 ], [ -94.149066690448507, 45.076019551478574 ], [ -94.158809540873349, 45.07026743509298 ], [ -94.168544003884591, 45.064500971459005 ], [ -94.17827005887473, 45.058720175504831 ], [ -94.187987685236294, 45.052925062158643 ], [ -94.197696862361937, 45.047115646348686 ], [ -94.207397569644073, 45.041291943003124 ], [ -94.217089786475356, 45.035453967050188 ], [ -94.226773492248284, 45.029601733418076 ], [ -94.236448666355429, 45.023735257034986 ], [ -94.246115288189372, 45.017854552829149 ], [ -94.255773337142571, 45.011959635728708 ], [ -94.265422792607652, 45.00605052066193 ], [ -94.27506363397714, 45.000127222556983 ], [ -94.284695840643579, 44.994189756342081 ], [ -94.294319391999579, 44.988238136945455 ], [ -94.303934267437597, 44.982272379295253 ], [ -94.313540446350231, 44.976292498319715 ], [ -94.32313790813005, 44.970298508947053 ], [ -94.332726632169553, 44.96429042610545 ], [ -94.342306597861366, 44.958268264723131 ], [ -94.351877784597946, 44.95223203972828 ], [ -94.361440171771918, 44.946181766049101 ], [ -94.370993738775795, 44.940117458613813 ], [ -94.380538465002132, 44.934039132350613 ], [ -94.390074329843515, 44.927946802187719 ], [ -94.399601312692425, 44.921840483053302 ], [ -94.409119392941463, 44.915720189875593 ], [ -94.418628549983168, 44.909585937582783 ], [ -94.428128763210097, 44.903437741103083 ], [ -94.437620012014818, 44.897275615364727 ], [ -94.447102275789817, 44.891099575295854 ], [ -94.45657553392769, 44.884909635824719 ], [ -94.46603976582098, 44.878705811879499 ], [ -94.475494950862242, 44.872488118388411 ], [ -94.484941068444058, 44.866256570279674 ], [ -94.494378097958901, 44.860011182481458 ], [ -94.503806018799366, 44.853751969921994 ], [ -94.513224810358011, 44.847478947529467 ], [ -94.522634452027347, 44.841192130232095 ], [ -94.532034923200001, 44.834891532958096 ], [ -94.541426203268443, 44.828577170635626 ], [ -94.550808271625286, 44.822249058192945 ], [ -94.560181107663027, 44.815907210558223 ], [ -94.569544690774222, 44.809551642659663 ], [ -94.578899000351498, 44.8031823694255 ], [ -94.588244015787282, 44.796799405783901 ], [ -94.597579716474215, 44.790402766663099 ], [ -94.606906081804851, 44.783992466991286 ], [ -94.616223091171634, 44.777568521696644 ], [ -94.625530723967273, 44.771130945707426 ], [ -94.634828959584198, 44.764679753951789 ], [ -94.644117777414991, 44.758214961357972 ], [ -94.653397156852236, 44.751736582854164 ], [ -94.662667077288404, 44.74524463336855 ], [ -94.671927518116149, 44.73873912782939 ], [ -94.681178458727942, 44.732220081164826 ], [ -94.690419878516366, 44.725687508303089 ], [ -94.699651756873976, 44.719141424172399 ], [ -94.708874073193272, 44.71258184370091 ], [ -94.718086806866907, 44.706008781816905 ], [ -94.727289937287324, 44.699422253448517 ], [ -94.736483443847135, 44.692822273523987 ], [ -94.745667305938881, 44.686208856971504 ], [ -94.75484150295506, 44.679582018719259 ], [ -94.764006014288327, 44.672941773695506 ], [ -94.773160819331125, 44.666288136828399 ], [ -94.782305897476078, 44.659621123046158 ], [ -94.791441228115715, 44.652940747277 ], [ -94.800566790642534, 44.646247024449096 ], [ -94.809682564449204, 44.639539969490706 ], [ -94.818788528928152, 44.632819597329984 ], [ -94.827884663472005, 44.62608592289515 ], [ -94.836970947473304, 44.619338961114423 ], [ -94.846047360324519, 44.612578726915963 ], [ -94.855113881418319, 44.605805235228033 ], [ -94.864170490147188, 44.599018500978801 ], [ -94.873217165903682, 44.592218539096478 ], [ -94.882253888080385, 44.585405364509278 ], [ -94.89128063606978, 44.578578992145374 ], [ -94.900297389264495, 44.571739436933015 ], [ -94.909304127057013, 44.564886713800369 ], [ -94.918300828839932, 44.558020837675663 ], [ -94.927287474005766, 44.551141823487086 ], [ -94.936264041947098, 44.54424968616285 ], [ -94.945230512056455, 44.537344440631159 ], [ -94.95418686372642, 44.530426101820218 ], [ -94.963133076349493, 44.523494684658225 ], [ -94.972069129318257, 44.51655020407339 ], [ -94.980995002025267, 44.509592674993911 ], [ -94.989910673863051, 44.502622112348007 ], [ -94.998816124224192, 44.495638531063868 ], [ -95.007711332501202, 44.488641946069691 ], [ -95.016596278086652, 44.481632372293703 ], [ -95.025470940373083, 44.474609824664093 ], [ -95.034335298753049, 44.467574318109065 ], [ -95.043189332619107, 44.460525867556832 ], [ -95.052033021363798, 44.453464487935591 ], [ -95.060866344379704, 44.446390194173546 ], [ -95.069689281059325, 44.439303001198908 ], [ -95.078501810795231, 44.432202923939876 ], [ -95.087303912979991, 44.425089977324646 ], [ -95.096095567006131, 44.417964176281437 ], [ -95.104876752266208, 44.410825535738446 ], [ -95.113647448152776, 44.403674070623879 ], [ -95.122407634058391, 44.396509795865931 ], [ -95.131157289375594, 44.38933272639283 ], [ -95.13989639349694, 44.382142877132758 ], [ -95.148624925814971, 44.374940263013919 ], [ -95.157342865722256, 44.367724898964525 ], [ -95.166050192611323, 44.360496799912788 ], [ -95.174746885874725, 44.353255980786898 ], [ -95.183432924905034, 44.346002456515066 ], [ -95.192108289094762, 44.33873624202549 ], [ -95.20077295783652, 44.331457352246375 ], [ -95.20942691052278, 44.324165802105938 ], [ -95.218070126546166, 44.316861606532377 ], [ -95.226702585299179, 44.309544780453891 ], [ -95.235324266174388, 44.302215338798675 ], [ -95.243935148564361, 44.294873296494963 ], [ -95.252535211861613, 44.287518668470931 ], [ -95.261124435458711, 44.28015146965479 ], [ -95.269702798748213, 44.272771714974752 ], [ -95.278270281122644, 44.265379419359022 ], [ -95.286826861974575, 44.257974597735789 ], [ -95.29537252069656, 44.250557265033265 ], [ -95.303907236681127, 44.24312743617967 ], [ -95.312430989320873, 44.235685126103185 ], [ -95.320943758008283, 44.228230349732023 ], [ -95.329445522135956, 44.220763121994388 ], [ -95.337936261096417, 44.213283457818484 ], [ -95.346415954282236, 44.205791372132516 ], [ -95.35488458108594, 44.198286879864689 ], [ -95.363342120900114, 44.190769995943207 ], [ -95.371788553117284, 44.18324073529628 ], [ -95.380223857129991, 44.175699112852101 ], [ -95.388648012330819, 44.168145143538879 ], [ -95.397060998112281, 44.160578842284814 ], [ -95.405462793866931, 44.153000224018115 ], [ -95.413853378987341, 44.145409303666987 ], [ -95.422232732866064, 44.137806096159636 ], [ -95.430600834895628, 44.130190616424265 ], [ -95.438957664468589, 44.122562879389065 ], [ -95.447303200977515, 44.114922899982261 ], [ -95.455637423814949, 44.107270693132037 ], [ -95.46396031237343, 44.099606273766618 ], [ -95.472271846045487, 44.091929656814187 ], [ -95.480572004223731, 44.084240857202971 ], [ -95.488860766300661, 44.076539889861152 ], [ -95.497138111668846, 44.068826769716949 ], [ -95.505404019720842, 44.06110151169856 ], [ -95.51365846984919, 44.053364130734188 ], [ -95.521901441446431, 44.045614641752046 ], [ -95.530132913905135, 44.037853059680323 ], [ -95.538352866617856, 44.030079399447246 ], [ -95.546561278977123, 44.022293675980997 ], [ -95.55475813037549, 44.014495904209788 ], [ -95.562943400205526, 44.006686099061824 ], [ -95.57111706785976, 43.998864275465309 ], [ -95.579279112730759, 43.991030448348447 ], [ -95.587429514211053, 43.983184632639443 ], [ -95.595568251693209, 43.975326843266501 ], [ -95.603695304569769, 43.967457095157826 ], [ -95.611810652233302, 43.959575403241615 ], [ -95.619914274076336, 43.95168178244608 ], [ -95.628006149491426, 43.943776247699418 ], [ -95.636086257871128, 43.935858813929848 ], [ -95.644154578607996, 43.927929496065559 ], [ -95.652211091094557, 43.919988309034764 ], [ -95.660255774723396, 43.91203526776566 ], [ -95.668288608887025, 43.904070387186458 ], [ -95.676309572978028, 43.896093682225363 ], [ -95.684318646388931, 43.888105167810565 ], [ -95.692315808512305, 43.880104858870283 ], [ -95.70030103874069, 43.872092770332721 ], [ -95.708274316466628, 43.864068917126076 ], [ -95.716235621082689, 43.856033314178561 ], [ -95.724184931981412, 43.847985976418364 ], [ -95.73212222855534, 43.839926918773706 ], [ -95.740047490197028, 43.831856156172776 ], [ -95.747960696299046, 43.8237737035438 ], [ -95.75586182625392, 43.815679575814961 ], [ -95.763750859454206, 43.807573787914471 ], [ -95.771627775292458, 43.799456354770541 ], [ -95.779492553161219, 43.791327291311354 ], [ -95.787345172453044, 43.783186612465137 ], [ -95.795185612560502, 43.775034333160086 ], [ -95.803013852876106, 43.766870468324413 ], [ -95.810829872792439, 43.758695032886308 ], [ -95.818633651702029, 43.750508041773976 ], [ -95.826425168997432, 43.742309509915628 ], [ -95.834204404071215, 43.734099452239477 ], [ -95.841971336315908, 43.725877883673711 ], [ -95.849725945124078, 43.717644819146535 ], [ -95.857468209888239, 43.709400273586162 ], [ -95.865198110000989, 43.701144261920795 ], [ -95.872915624854855, 43.692876799078633 ], [ -95.880620733842377, 43.684597899987885 ], [ -95.888313416356127, 43.676307579576751 ], [ -95.895993651788658, 43.66800585277344 ], [ -95.903661419532497, 43.659692734506152 ], [ -95.911316698980201, 43.651368239703089 ], [ -95.918959469524324, 43.643032383292457 ], [ -95.926589710557437, 43.634685180202474 ], [ -95.934207401472051, 43.626326645361317 ], [ -95.941812521660765, 43.617956793697225 ], [ -95.949405050516063, 43.609575640138367 ], [ -95.956984967430543, 43.601183199612969 ], [ -95.964552251796761, 43.592779487049228 ], [ -95.972106883007228, 43.584364517375342 ], [ -95.979648840454544, 43.575938305519529 ], [ -95.987178103531207, 43.567500866409986 ], [ -95.994694651629814, 43.559052214974912 ], [ -96.002198464142865, 43.550592366142524 ], [ -96.00968952046297, 43.542121334841021 ], [ -96.017167799982644, 43.533639135998598 ], [ -96.024633282094442, 43.525145784543476 ], [ -96.032085946190904, 43.516641295403836 ], [ -96.0395257716646, 43.508125683507906 ], [ -96.046952737908072, 43.499598963783875 ], [ -96.05436682431386, 43.491061151159954 ], [ -96.061768010274534, 43.482512260564341 ], [ -96.069156275182621, 43.473952306925248 ], [ -96.076531598430691, 43.46538130517088 ], [ -96.083893959411299, 43.456799270229432 ], [ -96.091243337516985, 43.44820621702911 ], [ -96.098579712140278, 43.439602160498126 ], [ -96.105903062673761, 43.430987115564683 ], [ -96.113213368509975, 43.422361097156966 ], [ -96.120510609041474, 43.413724120203213 ], [ -96.127794763660773, 43.405076199631601 ], [ -96.13506581176047, 43.396417350370342 ], [ -96.142323732733104, 43.387747587347647 ], [ -96.149568505971203, 43.379066925491706 ], [ -96.156800110867337, 43.370375379730739 ], [ -96.164018526814061, 43.361672964992941 ], [ -96.171223733203917, 43.352959696206518 ], [ -96.17841570942943, 43.344235588299668 ], [ -96.185594434883185, 43.335500656200608 ], [ -96.192759888957724, 43.326754914837537 ], [ -96.199912051045601, 43.31799837913865 ], [ -96.207050900539357, 43.309231064032168 ], [ -96.214176416831535, 43.300452984446281 ], [ -96.221288579314702, 43.291664155309199 ], [ -96.228387367381401, 43.282864591549121 ], [ -96.235472760424202, 43.274054308094264 ], [ -96.242544737835615, 43.26523331987282 ], [ -96.249603279008213, 43.256401641812992 ], [ -96.256648363334548, 43.247559288843 ], [ -96.263679970207178, 43.238706275891026 ], [ -96.270698079018629, 43.229842617885289 ], [ -96.277702669161471, 43.220968329753994 ], [ -96.284693720028244, 43.212083426425338 ], [ -96.291671211011518, 43.203187922827532 ], [ -96.298635121503793, 43.194281833888766 ], [ -96.305585430897693, 43.18536517453726 ], [ -96.312522118585719, 43.176437959701218 ], [ -96.319445163960424, 43.16750020430883 ], [ -96.326354546414365, 43.158551923288321 ], [ -96.33325024534011, 43.149593131567869 ], [ -96.340132240130188, 43.140623844075698 ], [ -96.347000510177139, 43.131644075740013 ], [ -96.353855034873533, 43.122653841489004 ], [ -96.360695793611924, 43.113653156250884 ], [ -96.367522765784841, 43.104642034953855 ], [ -96.374335930784866, 43.09562049252613 ], [ -96.381135268004527, 43.086588543895893 ], [ -96.387920756836365, 43.077546203991368 ], [ -96.39469237667295, 43.068493487740753 ], [ -96.401450106906836, 43.059430410072245 ], [ -96.408193926930551, 43.050356985914057 ], [ -96.41492381613665, 43.041273230194392 ], [ -96.421639753917702, 43.032179157841455 ], [ -96.42834171966625, 43.023074783783443 ], [ -96.435029692774833, 43.013960122948568 ], [ -96.441703652636008, 43.00483519026502 ], [ -96.448363578642329, 42.995700000661031 ], [ -96.455009450186338, 42.986554569064779 ], [ -96.461641246660605, 42.977398910404482 ], [ -96.468258947457656, 42.968233039608336 ], [ -96.474862531970047, 42.959056971604547 ], [ -96.481451979590332, 42.949870721321325 ], [ -96.488027269711068, 42.940674303686869 ], [ -96.494588381724796, 42.931467733629383 ], [ -96.501135295024071, 42.922251026077078 ], [ -96.507667989001447, 42.913024195958151 ], [ -96.514186443049454, 42.903787258200801 ], [ -96.520690636560659, 42.894540227733245 ], [ -96.527180548927632, 42.885283119483681 ], [ -96.533656159542886, 42.876015948380314 ], [ -96.540117447798977, 42.866738729351347 ], [ -96.546564393088474, 42.857451477324986 ], [ -96.552996974803932, 42.848154207229435 ], [ -96.559415172337879, 42.838846933992897 ], [ -96.565818965082869, 42.829529672543572 ], [ -96.572208332431458, 42.82020243780967 ], [ -96.578583253776202, 42.810865244719395 ], [ -96.584943708509641, 42.801518108200952 ], [ -96.591289676024346, 42.792161043182546 ], [ -96.597621135712828, 42.782794064592366 ], [ -96.603938066967672, 42.773417187358639 ], [ -96.610240449181418, 42.764030426409555 ], [ -96.616528261746609, 42.754633796673332 ], [ -96.622801484055799, 42.745227313078153 ], [ -96.629060095501544, 42.735810990552231 ], [ -96.635304075476384, 42.726384844023784 ], [ -96.64153340337289, 42.716948888420994 ], [ -96.647748058583588, 42.707503138672081 ], [ -96.653948020501034, 42.698047609705242 ], [ -96.660133268517797, 42.688582316448681 ], [ -96.666303782026418, 42.67910727383061 ], [ -96.672459540419425, 42.669622496779226 ], [ -96.678600523089386, 42.660128000222734 ], [ -96.684726709428858, 42.650623799089338 ], [ -96.690838078830382, 42.641109908307243 ], [ -96.696934610686512, 42.631586342804653 ], [ -96.703016284389804, 42.622053117509772 ], [ -96.7090830793328, 42.612510247350805 ], [ -96.71513497490804, 42.602957747255964 ], [ -96.721171950508094, 42.593395632153431 ], [ -96.727193985525503, 42.583823916971426 ], [ -96.733201059352822, 42.574242616638166 ], [ -96.739193151382594, 42.564651746081822 ], [ -96.745170241007372, 42.555051320230625 ], [ -96.751132307619713, 42.545441354012773 ], [ -96.757079330612157, 42.535821862356471 ], [ -96.763011289377275, 42.526192860189916 ], [ -96.768928163307578, 42.516554362441319 ], [ -96.774829931795651, 42.506906384038878 ], [ -96.78071657423402, 42.497248939910804 ], [ -96.78658807001527, 42.487582044985288 ], [ -96.792444398531913, 42.477905714190562 ], [ -96.798285539176533, 42.468219962454796 ], [ -96.804111471341656, 42.458524804706222 ], [ -96.809922174419839, 42.448820255873024 ], [ -96.815717627803622, 42.439106330883412 ], [ -96.821497810885575, 42.429383044665606 ], [ -96.827262703058238, 42.419650412147796 ], [ -96.833012283714169, 42.409908448258179 ], [ -96.838746532245906, 42.400157167924966 ], [ -96.844465428046007, 42.390396586076371 ], [ -96.850168950507026, 42.380626717640588 ], [ -96.855857079021504, 42.370847577545824 ], [ -96.861529792981983, 42.361059180720275 ], [ -96.867187071781046, 42.351261542092161 ], [ -96.872828894811221, 42.34145467658967 ], [ -96.878455241465034, 42.331638599141016 ], [ -96.884066091135097, 42.321813324674416 ], [ -96.889661423213923, 42.311978868118047 ], [ -96.895241217094039, 42.30213524440012 ], [ -96.900805452168044, 42.292282468448853 ], [ -96.906354107828449, 42.282420555192431 ], [ -96.911887163467824, 42.272549519559085 ], [ -96.917404598478711, 42.262669376476993 ], [ -96.92290639225368, 42.252780140874371 ], [ -96.928392524185242, 42.242881827679419 ], [ -96.933862973665995, 42.232974451820347 ], [ -96.939317720088468, 42.22305802822536 ], [ -96.944756742845186, 42.213132571822648 ], [ -96.950180021328734, 42.20319809754043 ], [ -96.955587534931638, 42.193254620306909 ], [ -96.960979263046482, 42.183302155050285 ], [ -96.966355185065794, 42.17334071669876 ], [ -96.971715280382099, 42.163370320180533 ], [ -96.977059528388011, 42.153390980423836 ], [ -96.982387908476028, 42.143402712356838 ], [ -96.987700400038705, 42.133405530907758 ], [ -96.992996982468611, 42.123399451004808 ], [ -96.998277635158288, 42.113384487576184 ], [ -97.003542337500292, 42.103360655550091 ], [ -97.008791068887163, 42.093327969854734 ], [ -97.014023808711457, 42.08328644541831 ], [ -97.019240536365714, 42.07323609716903 ], [ -97.024441231242491, 42.063176940035099 ], [ -97.029625872734357, 42.053108988944729 ], [ -97.034794440233853, 42.043032258826109 ], [ -97.039946913133505, 42.032946764607445 ], [ -97.045083270825884, 42.022852521216954 ], [ -97.050203492703545, 42.012749543582821 ], [ -97.055307558159015, 42.00263784663327 ], [ -97.060395446584877, 41.992517445296492 ], [ -97.065467137373659, 41.982388354500699 ], [ -97.070522609917901, 41.972250589174088 ], [ -97.075561843610188, 41.96210416424487 ], [ -97.080584817843047, 41.951949094641236 ], [ -97.085591512009017, 41.941785395291404 ], [ -97.090581905500684, 41.931613081123579 ], [ -97.095555977710561, 41.921432167065959 ], [ -97.100513708031244, 41.911242668046754 ], [ -97.105455075855232, 41.901044598994162 ], [ -97.110380060575096, 41.89083797483638 ], [ -97.115288641583405, 41.880622810501627 ], [ -97.120180798272685, 41.870399120918101 ], [ -97.125056510035478, 41.860166921014006 ], [ -97.129915756264367, 41.849926225717546 ], [ -97.134758516351866, 41.839677049956926 ], [ -97.139584769690572, 41.82941940866035 ], [ -97.144394495672998, 41.819153316756022 ], [ -97.149187673691699, 41.808878789172148 ], [ -97.153964283139231, 41.798595840836931 ], [ -97.15872430340815, 41.788304486678577 ], [ -97.163467713890995, 41.778004741625281 ], [ -97.168194493980323, 41.767696620605257 ], [ -97.172904623068689, 41.757380138546708 ], [ -97.17759808054862, 41.747055310377831 ], [ -97.182274845812699, 41.736722151026839 ], [ -97.186934898253469, 41.726380675421936 ], [ -97.191578217263455, 41.716030898491319 ], [ -97.196204782235228, 41.705672835163199 ], [ -97.200814572561342, 41.695306500365774 ], [ -97.205407567634325, 41.684931909027249 ], [ -97.209983746846746, 41.674549076075834 ], [ -97.21454308959116, 41.664158016439735 ], [ -97.21908557526011, 41.653758745047149 ], [ -97.223611183246135, 41.64335127682628 ], [ -97.228119892941805, 41.632935626705333 ], [ -97.232611683739663, 41.622511809612512 ], [ -97.237086535032262, 41.612079840476035 ], [ -97.24154442621213, 41.601639734224079 ], [ -97.245985336671836, 41.59119150578487 ], [ -97.250409245803937, 41.580735170086598 ], [ -97.254816133000958, 41.570270742057481 ], [ -97.259205977655498, 41.559798236625724 ], [ -97.263578759160055, 41.54931766871951 ], [ -97.267934456907213, 41.538829053267065 ], [ -97.272273050289499, 41.528332405196579 ], [ -97.276594518699483, 41.517827739436271 ], [ -97.280898841529691, 41.507315070914331 ], [ -97.285185998172693, 41.49679441455897 ], [ -97.289455968021059, 41.486265785298393 ], [ -97.293708730467287, 41.475729198060797 ], [ -97.297944264903961, 41.465184667774395 ], [ -97.302162550723622, 41.454632209367389 ], [ -97.306363567318854, 41.444071837767979 ], [ -97.310547294082141, 41.433503567904374 ], [ -97.314713710406096, 41.422927414704773 ], [ -97.318862795683216, 41.412343393097387 ], [ -97.322994529306101, 41.401751518010414 ], [ -97.327108890667276, 41.391151804372065 ], [ -97.331205859159269, 41.380544267110523 ], [ -97.335285414174692, 41.369928921154028 ], [ -97.339347535106029, 41.359305781430749 ], [ -97.343392201345878, 41.348674862868926 ], [ -97.347419392286781, 41.338036180396735 ], [ -97.35142908732125, 41.32738974894238 ], [ -97.355421265841855, 41.316735583434081 ], [ -97.359395907241193, 41.306073698800034 ], [ -97.363352990911764, 41.295404109968445 ], [ -97.367292496246137, 41.284726831867523 ], [ -97.371214402636838, 41.274041879425454 ], [ -97.375118689476437, 41.263349267570462 ], [ -97.379005336157491, 41.252649011230744 ], [ -97.382874322072553, 41.241941125334513 ], [ -97.386725626614137, 41.231225624809952 ], [ -97.390559229174841, 41.220502524585278 ], [ -97.394375109147177, 41.209771839588697 ], [ -97.398173245923715, 41.199033584748413 ], [ -97.401953618897011, 41.188287774992624 ], [ -97.405716207459605, 41.17753442524954 ], [ -97.409460991004039, 41.166773550447367 ], [ -97.413187948922868, 41.156005165514301 ], [ -97.416897060608648, 41.145229285378548 ], [ -97.420588305453933, 41.134445924968318 ], [ -97.424261662851265, 41.123655099211817 ], [ -97.427917112193214, 41.112856823037241 ], [ -97.431554632872292, 41.102051111372795 ], [ -97.435174204281083, 41.091237979146683 ], [ -97.438775805812128, 41.080417441287118 ], [ -97.442359416857968, 41.069589512722303 ], [ -97.445925016811159, 41.058754208380421 ], [ -97.449472585064257, 41.047911543189706 ], [ -97.453002101009801, 41.03706153207834 ], [ -97.456513544040348, 41.026204189974543 ], [ -97.460006893548467, 41.015339531806504 ], [ -97.463482128926685, 41.004467572502449 ], [ -97.466939229567529, 40.993588326990555 ], [ -97.470378174863598, 40.982701810199039 ], [ -97.473798944207431, 40.971808037056114 ], [ -97.477201516991556, 40.96090702248997 ], [ -97.480585872608543, 40.949998781428825 ], [ -97.483951990450919, 40.939083328800862 ], [ -97.487299849911267, 40.928160679534308 ], [ -97.490629430382114, 40.917230848557352 ], [ -97.49394071125603, 40.906293850798207 ], [ -97.497233671925542, 40.895349701185076 ], [ -97.500508291783206, 40.884398414646157 ], [ -97.50376455022159, 40.873440006109668 ], [ -97.507002426633235, 40.862474490503793 ], [ -97.51022190041067, 40.851501882756743 ], [ -97.513422950946477, 40.840522197796737 ], [ -97.516605557633184, 40.829535450551965 ], [ -97.51976969986336, 40.818541655950632 ], [ -97.522915357029532, 40.807540828920949 ], [ -97.52604250852427, 40.796532984391106 ], [ -97.529151133740129, 40.785518137289323 ], [ -97.532241212069636, 40.774496302543803 ], [ -97.535312722905346, 40.763467495082736 ], [ -97.538365645639828, 40.752431729834335 ], [ -97.541399959665625, 40.74138902172681 ], [ -97.544415644375277, 40.730339385688353 ], [ -97.54741267916134, 40.719282836647182 ], [ -97.550391043416354, 40.708219389531486 ], [ -97.553350716532904, 40.697149059269485 ], [ -97.556291677903502, 40.686071860789376 ], [ -97.559213906920718, 40.674987809019356 ], [ -97.562117382977092, 40.663896918887637 ], [ -97.565002085465181, 40.652799205322431 ], [ -97.56786799377754, 40.641694683251927 ], [ -97.570715087306695, 40.630583367604324 ], [ -97.573543345445245, 40.619465273307853 ], [ -97.576352747585688, 40.608340415290698 ], [ -97.579143273120593, 40.597208808481064 ], [ -97.581914901442531, 40.586070467807161 ], [ -97.584667611944027, 40.574925408197196 ], [ -97.587401384017639, 40.563773644579364 ], [ -97.59011619705592, 40.552615191881877 ], [ -97.592812030451412, 40.541450065032933 ], [ -97.595488863596657, 40.530278278960729 ], [ -97.598146675884252, 40.519099848593498 ], [ -97.600785446706681, 40.507914788859409 ], [ -97.603405155456556, 40.496723114686695 ], [ -97.606005781526378, 40.485524841003539 ], [ -97.608587304308728, 40.474319982738159 ], [ -97.611149703196133, 40.463108554818746 ], [ -97.613692957581193, 40.451890572173525 ], [ -97.616217046856391, 40.44066604973068 ], [ -97.618721950414312, 40.429435002418415 ], [ -97.621207647647509, 40.418197445164949 ], [ -97.623674117948525, 40.40695339289848 ], [ -97.626121340709915, 40.395702860547217 ], [ -97.628549295324234, 40.384445863039353 ], [ -97.630957961184009, 40.373182415303091 ], [ -97.63334731768181, 40.361912532266643 ], [ -97.635717344210178, 40.350636228858221 ], [ -97.638068020161668, 40.339353520006014 ], [ -97.640399324928836, 40.328064420638228 ], [ -97.642711237904237, 40.31676894568308 ], [ -97.645003738480384, 40.305467110068761 ], [ -97.647276806049888, 40.294158928723483 ], [ -97.649530420005249, 40.282844416575443 ], [ -97.651764559739021, 40.271523588552853 ], [ -97.653979204643775, 40.260196459583909 ], [ -97.656174334112066, 40.248863044596817 ], [ -97.65834992753642, 40.237523358519788 ], [ -97.660505964309408, 40.226177416281026 ], [ -97.66264242382357, 40.214825232808721 ], [ -97.664759285471447, 40.203466823031093 ], [ -97.66685652864561, 40.192102201876338 ], [ -97.668934132738599, 40.180731384272669 ], [ -97.670992077142969, 40.169354385148281 ], [ -97.673030341251248, 40.157971219431374 ], [ -97.67504890445602, 40.146581902050166 ], [ -97.67704774614981, 40.135186447932846 ], [ -97.67902684572519, 40.123784872007633 ], [ -97.680986182574699, 40.112377189202725 ], [ -97.68292573609088, 40.100963414446326 ], [ -97.684845485666287, 40.089543562666641 ], [ -97.686745410693476, 40.078117648791867 ], [ -97.688625490564988, 40.066685687750216 ], [ -97.690485704673392, 40.055247694469898 ], [ -97.692326032411231, 40.043803683879105 ], [ -97.69414645317103, 40.032353670906048 ], [ -97.695946946345373, 40.020897670478924 ], [ -97.697727491326788, 40.009435697525944 ], [ -97.699488067507843, 39.997967766975307 ], [ -97.701228654281081, 39.986493893755231 ], [ -97.702949231039042, 39.975014092793899 ], [ -97.704649777174296, 39.963528379019529 ], [ -97.706330272079384, 39.952036767360326 ], [ -97.707990695146847, 39.940539272744488 ], [ -97.709631025769241, 39.929035910100218 ], [ -97.71125124333912, 39.917526694355722 ], [ -97.712851327249027, 39.90601164043921 ], [ -97.71443125689153, 39.894490763278888 ], [ -97.715991011659156, 39.882964077802946 ], [ -97.717530570944476, 39.871431598939601 ], [ -97.71904991414003, 39.859893341617052 ], [ -97.720549020638373, 39.848349320763504 ], [ -97.722027869832047, 39.836799551307159 ], [ -82.961976542603111, 37.436485306487981 ], [ -82.963488427937349, 37.424691352785935 ], [ -82.965021093757258, 37.412903627177641 ], [ -82.966574518683913, 37.401122144187504 ], [ -82.96814868133842, 37.389346918339946 ], [ -82.969743560341854, 37.377577964159379 ], [ -82.971359134315264, 37.365815296170211 ], [ -82.972995381879784, 37.354058928896869 ], [ -82.974652281656461, 37.342308876863768 ], [ -82.976329812266385, 37.330565154595313 ], [ -82.978027952330635, 37.318827776615926 ], [ -82.979746680470285, 37.307096757450019 ], [ -82.981485975306427, 37.295372111622001 ], [ -82.983245815460151, 37.283653853656297 ], [ -82.98502617955252, 37.271941998077317 ], [ -82.986827046204624, 37.260236559409478 ], [ -82.988648394037554, 37.24853755217719 ], [ -82.990490201672372, 37.236844990904871 ], [ -82.99235244773017, 37.225158890116944 ], [ -82.994235110832022, 37.213479264337806 ], [ -82.996138169599035, 37.201806128091889 ], [ -82.998061602652257, 37.190139495903601 ], [ -83.000005388612792, 37.178479382297347 ], [ -83.001969506101716, 37.166825801797557 ], [ -83.003953933740092, 37.155178768928643 ], [ -83.00595865014904, 37.14353829821502 ], [ -83.007983633949593, 37.131904404181093 ], [ -83.010028863762884, 37.120277101351284 ], [ -83.012094318209961, 37.108656404250013 ], [ -83.014179975911915, 37.097042327401688 ], [ -83.016285815489823, 37.08543488533072 ], [ -83.018411815564775, 37.073834092561533 ], [ -83.020557954757834, 37.062239963618531 ], [ -83.022724211690104, 37.050652513026144 ], [ -83.024910564982662, 37.039071755308775 ], [ -83.027116993256584, 37.02749770499085 ], [ -83.029343475132947, 37.015930376596771 ], [ -83.031589989232842, 37.004369784650955 ], [ -83.033856514177344, 36.992815943677819 ], [ -83.036143028587531, 36.981268868201788 ], [ -83.038449511084494, 36.969728572747258 ], [ -83.040775940289308, 36.958195071838652 ], [ -83.043122294823064, 36.946668380000396 ], [ -83.045488553306839, 36.935148511756886 ], [ -83.04787469436171, 36.923635481632552 ], [ -83.050280696608752, 36.912129304151804 ], [ -83.052706538669057, 36.900629993839054 ], [ -83.055152199163714, 36.889137565218718 ], [ -83.057617656713802, 36.877652032815213 ], [ -83.060102889940381, 36.86617341115295 ], [ -83.062607877464544, 36.854701714756338 ], [ -83.065132597907379, 36.843236958149809 ], [ -83.067677029889964, 36.831779155857767 ], [ -83.07024115203339, 36.820328322404634 ], [ -83.072824942958732, 36.808884472314816 ], [ -83.07542838128704, 36.797447620112727 ], [ -83.07805144563946, 36.786017780322794 ], [ -83.080694114637012, 36.774594967469412 ], [ -83.083356366900816, 36.763179196077019 ], [ -83.086038181051933, 36.751770480670011 ], [ -83.088739535711468, 36.74036883577282 ], [ -83.091460409500471, 36.728974275909842 ], [ -83.094200781040044, 36.717586815605507 ], [ -83.096960628951265, 36.70620646938422 ], [ -83.099739931855211, 36.694833251770397 ], [ -83.102538668372972, 36.683467177288463 ], [ -83.10535681712561, 36.672108260462821 ], [ -83.108194356734231, 36.660756515817887 ], [ -83.11105126581991, 36.649411957878087 ], [ -83.11392752300371, 36.638074601167823 ], [ -83.116823106906736, 36.626744460211519 ], [ -83.119737996150079, 36.615421549533586 ], [ -83.122672169354772, 36.604105883658434 ], [ -83.125625605141948, 36.59279747711048 ], [ -83.128598282132657, 36.581496344414148 ], [ -83.131590178947988, 36.570202500093842 ], [ -83.134601274209032, 36.558915958673985 ], [ -83.137631546536852, 36.547636734678981 ], [ -83.140680974552552, 36.536364842633262 ], [ -83.143749536877209, 36.525100297061222 ], [ -83.146837212131885, 36.513843112487294 ], [ -83.149943978937671, 36.50259330343588 ], [ -83.153069815915671, 36.491350884431398 ], [ -83.156214701686949, 36.480115869998272 ], [ -83.159378614872566, 36.468888274660905 ], [ -83.162561534093626, 36.457668112943715 ], [ -83.165763437971208, 36.446455399371125 ], [ -83.168984305126401, 36.435250148467539 ], [ -83.172224114180253, 36.424052374757373 ], [ -83.175482843753898, 36.412862092765046 ], [ -83.178760472468383, 36.401679317014974 ], [ -83.182056978944786, 36.390504062031567 ], [ -83.185372341804211, 36.379336342339251 ], [ -83.18870653966772, 36.36817617246242 ], [ -83.192059551156404, 36.357023566925506 ], [ -83.195431354891355, 36.345878540252919 ], [ -83.198821929493619, 36.334741106969076 ], [ -83.20223125358433, 36.323611281598389 ], [ -83.205659305784508, 36.312489078665266 ], [ -83.2091060647153, 36.301374512694146 ], [ -83.212571508997726, 36.290267598209411 ], [ -83.216055617252906, 36.2791683497355 ], [ -83.219558368101914, 36.268076781796815 ], [ -83.223079740165815, 36.256992908917773 ], [ -83.226619712065727, 36.2459167456228 ], [ -83.230178262422683, 36.234848306436298 ], [ -83.233755369857803, 36.223787605882684 ], [ -83.23735101299215, 36.212734658486376 ], [ -83.240965170446813, 36.201689478771797 ], [ -83.244597820842884, 36.190652081263345 ], [ -83.248248942801425, 36.179622480485442 ], [ -83.251918514943512, 36.168600690962506 ], [ -83.255606515890236, 36.157586727218941 ], [ -83.259312924262701, 36.146580603779178 ], [ -83.263037718681971, 36.135582335167626 ], [ -83.266780877769108, 36.12459193590869 ], [ -83.270542380145216, 36.113609420526799 ], [ -83.274322204431371, 36.102634803546358 ], [ -83.278120329248665, 36.091668099491784 ], [ -83.28193673321816, 36.080709322887493 ], [ -83.285771394960946, 36.069758488257904 ], [ -83.2896242930981, 36.058815610127425 ], [ -83.293495406250713, 36.047880703020475 ], [ -83.297384713039861, 36.036953781461463 ], [ -83.301292192086635, 36.026034859974814 ], [ -83.305217822012111, 36.015123953084931 ], [ -83.309161581437365, 36.004221075316245 ], [ -83.313123448983475, 35.993326241193152 ], [ -83.317103403271531, 35.982439465240077 ], [ -83.321101422922609, 35.971560761981436 ], [ -83.325117486557801, 35.960690145941641 ], [ -83.329151572798168, 35.9498276316451 ], [ -83.333203660264815, 35.938973233616245 ], [ -83.337273727578804, 35.928126966379473 ], [ -83.341361753361255, 35.917288844459215 ], [ -83.345467716233202, 35.906458882379873 ], [ -83.349591594815735, 35.895637094665865 ], [ -83.353733367729944, 35.884823495841601 ], [ -83.357893013596922, 35.87401810043152 ], [ -83.362070511037729, 35.863220922960004 ], [ -83.366265838673485, 35.85243197795149 ], [ -83.370478975125224, 35.841651279930382 ], [ -83.37470989901405, 35.830878843421104 ], [ -83.378958588961041, 35.820114682948059 ], [ -83.383225023587286, 35.809358813035665 ], [ -83.387509181513863, 35.798611248208346 ], [ -83.391811041361819, 35.787872002990511 ], [ -83.396130581752303, 35.777141091906572 ], [ -83.400467781306347, 35.766418529480951 ], [ -83.404822618645056, 35.755704330238054 ], [ -83.40919507238948, 35.744998508702295 ], [ -83.413585121160736, 35.734301079398101 ], [ -83.417992743579902, 35.723612056849881 ], [ -83.422417918268025, 35.712931455582044 ], [ -83.426860623846238, 35.702259290119017 ], [ -83.431320838935576, 35.691595574985193 ], [ -83.435798542157144, 35.68094032470502 ], [ -83.440293712132018, 35.670293553802878 ], [ -83.444806327481288, 35.659655276803207 ], [ -83.449336366826017, 35.649025508230409 ], [ -83.45388380878731, 35.638404262608908 ], [ -83.458448631986229, 35.627791554463109 ], [ -83.463030815043865, 35.617187398317427 ], [ -83.467630336581294, 35.606591808696287 ], [ -83.472247175219593, 35.596004800124092 ], [ -83.476881309579866, 35.585426387125267 ], [ -83.481532718283177, 35.574856584224221 ], [ -83.4862013799506, 35.564295405945373 ], [ -83.490887273203242, 35.553742866813131 ], [ -83.495590376662165, 35.543198981351921 ], [ -83.500310668948444, 35.532663764086152 ], [ -83.505048128683171, 35.522137229540228 ], [ -83.509802734487437, 35.511619392238579 ], [ -83.514574464982303, 35.501110266705616 ], [ -83.519363298788875, 35.49060986746575 ], [ -83.524169214528214, 35.480118209043397 ], [ -83.528992190821413, 35.469635305962974 ], [ -83.533832206289546, 35.459161172748892 ], [ -83.53868923955369, 35.448695823925576 ], [ -83.543563269234951, 35.438239274017434 ], [ -83.548454273954377, 35.42779153754887 ], [ -83.553362232333072, 35.417352629044316 ], [ -83.558287122992112, 35.406922563028175 ], [ -83.563228924552575, 35.396501354024871 ], [ -83.568187615635551, 35.386089016558813 ], [ -83.573163174862117, 35.375685565154427 ], [ -83.578155580853348, 35.365291014336108 ], [ -83.583164812230336, 35.354905378628281 ], [ -83.588190847614158, 35.344528672555363 ], [ -83.593233665625888, 35.334160910641771 ], [ -83.598293244886619, 35.323802107411908 ], [ -83.603369564017413, 35.313452277390205 ], [ -83.608462601639388, 35.303111435101066 ], [ -83.613572336373593, 35.2927795950689 ], [ -83.618698746841133, 35.28245677181814 ], [ -83.62384181166307, 35.272142979873188 ], [ -83.62900150946048, 35.261838233758461 ], [ -83.634177818854468, 35.251542547998383 ], [ -83.639370718466111, 35.241255937117351 ], [ -83.644580186916471, 35.230978415639782 ], [ -83.649806202826653, 35.220709998090115 ], [ -83.655048744817719, 35.210450698992744 ], [ -83.66030779151076, 35.200200532872081 ], [ -83.665583321526867, 35.18995951425255 ], [ -83.670875313487102, 35.17972765765856 ], [ -83.676183746012555, 35.169504977614537 ], [ -83.681508597724317, 35.159291488644882 ], [ -83.686849847243451, 35.149087205274022 ], [ -83.692207473191061, 35.138892142026364 ], [ -83.697581454188196, 35.128706313426328 ], [ -83.702971768855974, 35.118529733998322 ], [ -83.708378395815444, 35.108362418266758 ], [ -83.713801313687725, 35.098204380756066 ], [ -83.719240501093864, 35.088055635990649 ], [ -83.724695936654953, 35.077916198494925 ], [ -83.730167598992082, 35.067786082793305 ], [ -83.735655466726328, 35.057665303410218 ], [ -83.741159518478753, 35.047553874870061 ], [ -83.746679732870476, 35.03745181169726 ], [ -83.752216088522559, 35.027359128416222 ], [ -83.757768564056079, 35.017275839551367 ], [ -83.763337138092126, 35.00720195962711 ], [ -83.768921789251763, 34.997137503167863 ], [ -83.774522496156095, 34.987082484698043 ], [ -83.780139237426198, 34.977036918742066 ], [ -83.785771991683148, 34.967000819824342 ], [ -83.791420737548023, 34.956974202469297 ], [ -83.797085453641913, 34.946957081201326 ], [ -83.802766118585893, 34.936949470544867 ], [ -83.808462711001042, 34.92695138502431 ], [ -83.814175209508463, 34.9169628391641 ], [ -83.819903592729219, 34.906983847488625 ], [ -83.825647839284372, 34.897014424522311 ], [ -83.831407927795055, 34.887054584789574 ], [ -83.837183836882303, 34.877104342814825 ], [ -83.842975545167221, 34.86716371312248 ], [ -83.848783031270898, 34.857232710236957 ], [ -83.854606273814383, 34.847311348682666 ], [ -83.860445251418767, 34.837399642984025 ], [ -83.866299942705155, 34.82749760766545 ], [ -83.872170326294622, 34.817605257251351 ], [ -83.878056380808232, 34.807722606266147 ], [ -83.883958084867075, 34.797849669234253 ], [ -83.889875417092227, 34.787986460680074 ], [ -83.895808356104794, 34.778132995128047 ], [ -83.901756880525838, 34.768289287102562 ], [ -83.907720968976435, 34.758455351128049 ], [ -83.913700600077661, 34.748631201728919 ], [ -83.919695752450622, 34.738816853429583 ], [ -83.925706404716394, 34.729012320754464 ], [ -83.931732535496039, 34.719217618227972 ], [ -83.937774123410662, 34.709432760374519 ], [ -83.94383114708134, 34.699657761718527 ], [ -83.949903585129135, 34.6898926367844 ], [ -83.955991416175152, 34.680137400096569 ], [ -83.962094618840439, 34.670392066179431 ], [ -83.968213171746129, 34.66065664955741 ], [ -83.97434705351327, 34.650931164754923 ], [ -83.980496242762939, 34.641215626296379 ], [ -83.986660718116241, 34.631510048706204 ], [ -83.992840458194237, 34.6218144465088 ], [ -83.99903544161802, 34.612128834228585 ], [ -84.00524564700865, 34.602453226389969 ], [ -84.011471052987233, 34.592787637517382 ], [ -84.017711638174859, 34.583132082135236 ], [ -84.023967381192577, 34.573486574767927 ], [ -84.030238260661491, 34.563851129939891 ], [ -84.036524255202679, 34.554225762175527 ], [ -84.042825343437215, 34.544610485999264 ], [ -84.049141503986192, 34.5350053159355 ], [ -84.055472715470671, 34.525410266508672 ], [ -84.061818956511772, 34.515825352243183 ], [ -84.068180205730528, 34.506250587663438 ], [ -84.074556441748058, 34.496685987293866 ], [ -84.080947643185425, 34.487131565658878 ], [ -84.087353788663719, 34.477587337282891 ], [ -84.093774856804018, 34.468053316690309 ], [ -84.100210826227396, 34.458529518405562 ], [ -84.106661675554946, 34.449015956953055 ], [ -84.113127383407743, 34.43951264685721 ], [ -84.119607928406879, 34.430019602642432 ], [ -84.126103289173415, 34.420536838833144 ], [ -84.132613444328456, 34.411064369953756 ], [ -84.139138372493065, 34.401602210528686 ], [ -84.145678052288346, 34.392150375082352 ], [ -84.152232462335348, 34.382708878139155 ], [ -84.158801581255176, 34.373277734223528 ], [ -84.165385387668906, 34.363856957859873 ], [ -84.171983860197614, 34.354446563572608 ], [ -84.178596977462391, 34.345046565886157 ], [ -84.185224718084314, 34.335656979324924 ], [ -84.191867060684459, 34.326277818413317 ], [ -84.198523983883916, 34.316909097675769 ], [ -84.205195466303778, 34.307550831636689 ], [ -84.21188148656509, 34.298203034820482 ], [ -84.218582023288974, 34.288865721751577 ], [ -84.22529705509649, 34.279538906954379 ], [ -84.232026560608702, 34.270222604953304 ], [ -84.238770518446728, 34.26091683027277 ], [ -84.245528907231645, 34.251621597437193 ], [ -84.2523017055845, 34.242336920970985 ], [ -84.2590888921264, 34.233062815398554 ], [ -84.265890445478433, 34.223799295244326 ], [ -84.272706344261664, 34.214546375032711 ], [ -84.279536567097196, 34.205304069288132 ], [ -84.286381092606092, 34.196072392534987 ], [ -84.293239899409429, 34.186851359297705 ], [ -84.300112966128296, 34.177640984100691 ], [ -84.307000271383785, 34.168441281468368 ], [ -84.313901793796973, 34.159252265925154 ], [ -84.320817511988921, 34.150073951995452 ], [ -84.327747404580734, 34.140906354203679 ], [ -84.334691450193489, 34.131749487074259 ], [ -84.341649627448263, 34.122603365131603 ], [ -84.348621914966131, 34.11346800290012 ], [ -84.355608291368185, 34.104343414904228 ], [ -84.362608735275515, 34.095229615668345 ], [ -84.369623225309169, 34.086126619716879 ], [ -84.376651740090267, 34.077034441574256 ], [ -84.383694258239871, 34.067953095764878 ], [ -84.39075075837907, 34.05888259681317 ], [ -84.397821219128943, 34.049822959243542 ], [ -84.404905619110565, 34.040774197580411 ], [ -84.412003936945013, 34.031736326348188 ], [ -84.419116151253377, 34.022709360071289 ], [ -84.426242240656762, 34.013693313274139 ], [ -84.433382183776217, 34.004688200481134 ], [ -84.440535959232832, 33.995694036216705 ], [ -84.44770354564767, 33.986710835005262 ], [ -84.454884921641863, 33.977738611371215 ], [ -84.462080065836446, 33.968777379838983 ], [ -84.469288956852509, 33.959827154932988 ], [ -84.476511573311157, 33.950887951177627 ], [ -84.483747893833453, 33.941959783097325 ], [ -84.490997897040472, 33.933042665216497 ], [ -84.498261561553306, 33.924136612059563 ], [ -84.505538865993032, 33.915241638150931 ], [ -84.512829788980738, 33.906357758015012 ], [ -84.520134309137504, 33.897484986176238 ], [ -84.527452405084404, 33.888623337159004 ], [ -84.534784055442529, 33.879772825487727 ], [ -84.542129238832956, 33.870933465686839 ], [ -84.549487933876776, 33.862105272280743 ], [ -84.556860119195051, 33.85328825979385 ], [ -84.564245773408871, 33.844482442750575 ], [ -84.571644875139327, 33.835687835675344 ], [ -84.579057403007482, 33.826904453092567 ], [ -84.586483335634426, 33.818132309526646 ], [ -84.593922651641265, 33.809371419502014 ], [ -84.601375329649031, 33.80062179754308 ], [ -84.608841348278844, 33.791883458174254 ], [ -84.616320686151781, 33.783156415919954 ], [ -84.623813321888903, 33.774440685304597 ], [ -84.631319234111317, 33.765736280852593 ], [ -84.638838401440083, 33.757043217088366 ], [ -84.646370802496293, 33.748361508536313 ], [ -84.653916415901037, 33.739691169720871 ], [ -84.661475220275378, 33.731032215166444 ], [ -84.669047194240406, 33.722384659397441 ], [ -84.676632316417212, 33.713748516938281 ], [ -84.684230565426859, 33.705123802313388 ], [ -84.691841919890436, 33.696510530047163 ], [ -84.699466358429049, 33.68790871466404 ], [ -84.707103859663732, 33.679318370688407 ], [ -84.714754402215604, 33.670739512644701 ], [ -84.722417964705727, 33.662172155057327 ], [ -84.730094525755192, 33.653616312450701 ], [ -84.737784063985089, 33.645071999349234 ], [ -84.745486558016466, 33.63653923027735 ], [ -84.753201986470444, 33.628018019759466 ], [ -84.760930327968083, 33.619508382319985 ], [ -84.768671561130475, 33.611010332483325 ], [ -84.776425664578682, 33.602523884773895 ], [ -84.784192616933808, 33.594049053716134 ], [ -84.791972396816917, 33.585585853834424 ], [ -84.799764982849112, 33.57713429965321 ], [ -84.807570353651442, 33.568694405696888 ], [ -84.815388487845027, 33.560266186489876 ], [ -84.823219364050928, 33.551849656556598 ], [ -84.831062960890222, 33.54344483042145 ], [ -84.838919256983985, 33.53505172260887 ], [ -84.846788230953337, 33.526670347643254 ], [ -84.85466986141931, 33.518300720049027 ], [ -84.862564127003026, 33.509942854350605 ], [ -84.870471006325531, 33.501596765072392 ], [ -84.878390478007944, 33.493262466738813 ], [ -84.8863225206713, 33.484939973874276 ], [ -84.894267112936731, 33.476629301003207 ], [ -84.902224233425272, 33.468330462650009 ], [ -84.910193860758042, 33.460043473339098 ], [ -84.918175973556117, 33.4517683475949 ], [ -84.926170550440546, 33.443505099941817 ], [ -84.934177570032446, 33.435253744904266 ], [ -84.942197010952881, 33.427014297006664 ], [ -84.950228851822942, 33.41878677077343 ], [ -84.958273071263704, 33.410571180728972 ], [ -84.966329647896245, 33.402367541397709 ], [ -84.974398560341669, 33.394175867304057 ], [ -84.982479787221024, 33.385996172972426 ], [ -84.990573307155401, 33.377828472927234 ], [ -84.998679098765905, 33.369672781692898 ], [ -85.006797140673598, 33.361529113793829 ], [ -85.014927411499556, 33.353397483754442 ], [ -85.023069889864885, 33.345277906099156 ], [ -85.031224554390633, 33.337170395352381 ], [ -85.039391383697904, 33.329074966038533 ], [ -85.047570356407775, 33.320991632682023 ], [ -85.055761451141322, 33.312920409807276 ], [ -85.063964646519636, 33.304861311938694 ], [ -85.072179921163794, 33.296814353600709 ], [ -85.080407253694887, 33.288779549317724 ], [ -85.088646622733975, 33.280756913614148 ], [ -85.096898006902151, 33.272746461014414 ], [ -85.105161384820505, 33.264748206042924 ], [ -85.113436735110113, 33.256762163224089 ], [ -85.121724036392024, 33.248788347082332 ], [ -85.130023267287385, 33.240826772142064 ], [ -85.138334406417215, 33.232877452927703 ], [ -85.146657432402634, 33.224940403963664 ], [ -85.154992323864718, 33.21701563977436 ], [ -85.16333905942453, 33.209103174884206 ], [ -85.171697617703188, 33.201203023817619 ], [ -85.180067977321727, 33.193315201099004 ], [ -85.188450116901237, 33.185439721252799 ], [ -85.196844015062851, 33.177576598803391 ], [ -85.205249650427589, 33.169725848275206 ], [ -85.213667001616557, 33.161887484192668 ], [ -85.222096047250844, 33.15406152108018 ], [ -85.230536765951513, 33.14624797346216 ], [ -85.238989136339654, 33.138446855863023 ], [ -85.247453137036359, 33.130658182807196 ], [ -85.255928746662704, 33.122881968819073 ], [ -85.264415943839765, 33.115118228423071 ], [ -85.272914707188633, 33.107366976143624 ], [ -85.281425015330356, 33.099628226505132 ], [ -85.289946846886068, 33.091901994032014 ], [ -85.298480180476801, 33.084188293248673 ], [ -85.307024994723676, 33.076487138679546 ], [ -85.315581268247755, 33.068798544849031 ], [ -85.324148979670099, 33.061122526281551 ], [ -85.332728107611857, 33.053459097501516 ], [ -85.341318630694033, 33.045808273033352 ], [ -85.349920527537776, 33.038170067401452 ], [ -85.358533776764105, 33.03054449513025 ], [ -85.367158356994139, 33.022931570744149 ], [ -85.375794246848955, 33.015331308767578 ], [ -85.384441424949614, 33.007743723724936 ], [ -85.393099869917222, 33.000168830140645 ], [ -85.401769560372855, 32.992606642539123 ], [ -85.410450474937591, 32.98505717544478 ], [ -85.419142592232504, 32.977520443382026 ], [ -85.4278458908787, 32.969996460875294 ], [ -85.436560349497228, 32.962485242448984 ], [ -85.445285946709191, 32.954986802627509 ], [ -85.454022661135667, 32.947501155935292 ], [ -85.462770471397718, 32.940028316896743 ], [ -85.471529356116463, 32.932568300036273 ], [ -85.480299293912978, 32.925121119878312 ], [ -85.489080263408297, 32.917686790947265 ], [ -85.497872243223554, 32.91026532776754 ], [ -85.506675211979811, 32.902856744863563 ], [ -85.515489148298158, 32.89546105675975 ], [ -85.524314030799644, 32.888078277980505 ], [ -85.533149838105388, 32.880708423050244 ], [ -85.541996548836451, 32.873351506493385 ], [ -85.550854141613939, 32.866007542834353 ], [ -85.559722595058901, 32.858676546597557 ], [ -85.568601887792425, 32.851358532307394 ], [ -85.577491998435605, 32.844053514488301 ], [ -85.586392905609529, 32.83676150766469 ], [ -85.59530458793526, 32.829482526360962 ], [ -85.604227024033904, 32.82221658510155 ], [ -85.613160192526507, 32.814963698410857 ], [ -85.622104072034176, 32.807723880813292 ], [ -85.631058641177987, 32.800497146833294 ], [ -85.640023878579015, 32.793283510995245 ], [ -85.648999762858352, 32.78608298782359 ], [ -85.657986272637075, 32.778895591842733 ], [ -85.666983386536273, 32.771721337577077 ], [ -85.67599108317701, 32.764560239551052 ], [ -85.685009341180375, 32.75741231228907 ], [ -85.694038139167446, 32.750277570315539 ], [ -85.703077455759313, 32.743156028154878 ], [ -85.712127269577067, 32.736047700331504 ], [ -85.721187559241756, 32.728952601369834 ], [ -85.730258303374498, 32.721870745794277 ], [ -85.739339480596371, 32.714802148129245 ], [ -85.748431069528422, 32.707746822899161 ], [ -85.757533048791771, 32.700704784628435 ], [ -85.766645397007451, 32.693676047841478 ], [ -85.775768092796596, 32.686660627062722 ], [ -85.784901114780283, 32.679658536816561 ], [ -85.794044441579572, 32.67266979162742 ], [ -85.803198051815542, 32.665694406019718 ], [ -85.812361924109268, 32.658732394517855 ], [ -85.82153603708187, 32.651783771646258 ], [ -85.83072036935441, 32.64484855192935 ], [ -85.839914899547949, 32.637926749891527 ], [ -85.84911960628358, 32.631018380057206 ], [ -85.858334468182392, 32.624123456950812 ], [ -85.86755946386549, 32.617241995096762 ], [ -85.876794571953909, 32.610374009019459 ], [ -85.886039771068738, 32.60351951324332 ], [ -85.895295039831097, 32.596678522292763 ], [ -85.904560356862007, 32.589851050692204 ], [ -85.913835700782641, 32.583037112966068 ], [ -85.923121050213979, 32.576236723638743 ], [ -85.932416383777152, 32.569449897234662 ], [ -85.941721680093252, 32.562676648278249 ], [ -85.951036917783298, 32.555916991293884 ], [ -85.960362075468495, 32.549170940806029 ], [ -85.969697131769792, 32.542438511339064 ], [ -85.979042065308349, 32.535719717417415 ], [ -85.988396854705229, 32.529014573565497 ], [ -85.997761478581481, 32.522323094307716 ], [ -86.007135915558251, 32.515645294168515 ], [ -86.01652014425656, 32.508981187672276 ], [ -86.025914143297527, 32.502330789343418 ], [ -86.035317891302228, 32.495694113706378 ], [ -86.04473136689171, 32.489071175285545 ], [ -86.054154548687109, 32.482461988605365 ], [ -86.06358741530947, 32.47586656819022 ], [ -86.073029945379886, 32.469284928564541 ], [ -86.082482117519447, 32.462717084252752 ], [ -86.091943910349158, 32.456163049779235 ], [ -86.101415302490267, 32.44962283966845 ], [ -86.110896272563679, 32.443096468444772 ], [ -86.12038679919057, 32.436583950632638 ], [ -86.129886860992031, 32.43008530075646 ], [ -86.139396436589067, 32.423600533340633 ], [ -86.148915504602869, 32.417129662909616 ], [ -86.158444043654384, 32.410672703987771 ], [ -86.167982032364819, 32.40422967109955 ], [ -86.177529449355205, 32.397800578769363 ], [ -86.187086273246564, 32.391385441521599 ], [ -86.196652482660099, 32.384984273880711 ], [ -86.206228056216816, 32.378597090371088 ], [ -86.215812972537776, 32.372223905517146 ], [ -86.225407210244143, 32.365864733843317 ], [ -86.235010747956878, 32.35951958987399 ], [ -86.2446235642972, 32.353188488133604 ], [ -86.254245637886086, 32.346871443146561 ], [ -86.26387694734467, 32.340568469437279 ], [ -86.273517471294028, 32.334279581530176 ], [ -86.283167188355179, 32.32800479394966 ], [ -86.292826077149314, 32.321744121220149 ], [ -86.302494116297453, 32.315497577866061 ], [ -86.312171284420671, 32.309265178411806 ], [ -86.32185756014006, 32.303046937381801 ], [ -86.331552922076668, 32.296842869300448 ], [ -86.341257348851656, 32.290652988692187 ], [ -86.350970819086044, 32.284477310081428 ], [ -86.360693311400937, 32.278315847992573 ], [ -86.370424804417411, 32.27216861695004 ], [ -86.380165276756514, 32.266035631478239 ], [ -86.389914707039381, 32.259916906101601 ], [ -86.399673073887087, 32.253812455344523 ], [ -86.40944035592068, 32.247722293731435 ], [ -86.419216531761265, 32.241646435786748 ], [ -86.429001580029905, 32.235584896034858 ], [ -86.438795479347718, 32.22953768900021 ], [ -86.448598208335738, 32.223504829207208 ], [ -86.4584097456151, 32.217486331180261 ], [ -86.46823006980685, 32.211482209443787 ], [ -86.478059159532023, 32.205492478522181 ], [ -86.487896993411809, 32.199517152939904 ], [ -86.497743550067227, 32.193556247221331 ], [ -86.507598808119354, 32.187609775890891 ], [ -86.517462746189295, 32.181677753473004 ], [ -86.52733534289807, 32.175760194492064 ], [ -86.537216576866854, 32.16985711347251 ], [ -86.547106426716695, 32.163968524938745 ], [ -86.557004871068628, 32.158094443415187 ], [ -86.5669118885438, 32.152234883426253 ], [ -86.57682745776323, 32.146389859496345 ], [ -86.58675155734808, 32.140559386149903 ], [ -86.596684165919356, 32.134743477911314 ], [ -86.606625262098149, 32.128942149305004 ], [ -86.616574824505605, 32.123155414855404 ], [ -86.626532831762688, 32.117383289086895 ], [ -86.636499262490602, 32.111625786523916 ], [ -86.646474095310367, 32.105882921690885 ], [ -86.656457308843073, 32.100154709112196 ], [ -86.666448881709826, 32.094441163312297 ], [ -86.676448792531644, 32.088742298815554 ], [ -86.686457019929676, 32.083058130146433 ], [ -86.69647354252497, 32.077388671829318 ], [ -86.706498338938587, 32.071733938388618 ], [ -86.71653138779169, 32.066093944348793 ], [ -86.726572667705256, 32.060468704234196 ], [ -86.736622157300445, 32.054858232569288 ], [ -86.746679835198293, 32.049262543878463 ], [ -86.75674568001989, 32.043681652686139 ], [ -86.766819670386383, 32.038115573516741 ], [ -86.776901784918721, 32.032564320894657 ], [ -86.786992002238108, 32.027027909344341 ], [ -86.797090300965564, 32.02150635339018 ], [ -86.807196659722166, 32.015999667556585 ], [ -86.817311057129075, 32.010507866368009 ], [ -86.827433471807254, 32.005030964348812 ], [ -86.83756388237785, 31.999568976023443 ], [ -86.847702267461955, 31.99412191591632 ], [ -86.857848605680601, 31.988689798551835 ], [ -86.868002875654966, 31.983272638454437 ], [ -86.878165056005997, 31.977870450148501 ], [ -86.888335125354871, 31.972483248158468 ], [ -86.898513062322635, 31.967111047008743 ], [ -86.908698845530381, 31.961753861223741 ], [ -86.918892453599227, 31.956411705327895 ], [ -86.929093865150165, 31.951084593845579 ], [ -86.939303058804327, 31.945772541301245 ], [ -86.94952001318282, 31.940475562219298 ], [ -86.95974470690669, 31.935193671124146 ], [ -86.969977118597058, 31.929926882540222 ], [ -86.980217226874927, 31.924675210991911 ], [ -86.990465010361447, 31.919438671003647 ], [ -87.000720447677693, 31.914217277099848 ], [ -87.0109835174447, 31.909011043804913 ], [ -87.021254198283643, 31.903819985643285 ], [ -87.03153246881547, 31.898644117139341 ], [ -87.041818307661387, 31.893483452817524 ], [ -87.052111693442427, 31.888338007202243 ], [ -87.062412604779624, 31.883207794817899 ], [ -87.072721020294168, 31.878092830188933 ], [ -87.083036918607021, 31.872993127839727 ], [ -87.093360278339347, 31.867908702294727 ], [ -87.103691078112192, 31.862839568078336 ], [ -87.114029296546647, 31.857785739714956 ], [ -87.124374912263818, 31.852747231729026 ], [ -87.134727903884723, 31.847724058644939 ], [ -87.145088250030511, 31.842716234987122 ], [ -87.155455929322216, 31.837723775279986 ], [ -87.165830920380941, 31.832746694047938 ], [ -87.176213201827778, 31.827785005815421 ], [ -87.186602752283775, 31.822838725106813 ], [ -87.196999550370066, 31.81790786644655 ], [ -87.207403574707669, 31.81299244435905 ], [ -87.217814803917676, 31.808092473368699 ], [ -87.228233216621263, 31.803207967999963 ], [ -87.238658791439391, 31.798338942777214 ], [ -87.249091506993182, 31.793485412224875 ], [ -87.259531341903738, 31.788647390867375 ], [ -87.269978274792109, 31.783824893229109 ], [ -87.280432284279428, 31.779017933834517 ], [ -87.2908933489867, 31.774226527207986 ], [ -87.301361447535058, 31.769450687873949 ], [ -87.311836558545608, 31.764690430356826 ], [ -87.32231866063934, 31.759945769181005 ], [ -87.332807732437459, 31.755216718870933 ], [ -87.343303752560928, 31.750503293950999 ], [ -87.353806699630908, 31.745805508945633 ], [ -87.364316552268448, 31.74112337837925 ], [ -87.37483328909461, 31.736456916776245 ], [ -87.38535688873057, 31.731806138661071 ], [ -87.395887329797276, 31.727171058558099 ], [ -87.406424590915861, 31.722551690991772 ], [ -87.416968650707489, 31.717948050486505 ], [ -87.427519487793106, 31.71336015156669 ], [ -87.438077080793903, 31.708788008756777 ], [ -87.448641408330872, 31.704231636581142 ], [ -87.459212449025173, 31.699691049564226 ], [ -87.469790181497871, 31.695166262230444 ], [ -87.480374584369969, 31.690657289104188 ], [ -87.490965636262672, 31.686164144709906 ], [ -87.501563315796972, 31.681686843571988 ], [ -87.512167601593987, 31.677225400214855 ], [ -87.522778472274808, 31.672779829162934 ], [ -87.533395906460441, 31.668350144940611 ], [ -87.544019882772076, 31.663936362072327 ], [ -87.554650379830719, 31.659538495082494 ], [ -87.565287376257501, 31.655156558495516 ], [ -87.575930850673473, 31.650790566835813 ], [ -87.586580781699666, 31.646440534627793 ], [ -87.597237147957301, 31.642106476395885 ], [ -87.607899928067326, 31.637788406664498 ], [ -87.618569100650888, 31.633486339958043 ], [ -87.629244644329063, 31.629200290800949 ], [ -87.639926537722872, 31.624930273717592 ], [ -87.650614759453518, 31.620676303232443 ], [ -87.661309288141965, 31.616438393869878 ], [ -87.672010102409345, 31.612216560154312 ], [ -87.682717180876764, 31.608010816610189 ], [ -87.693430502165214, 31.60382117776188 ], [ -87.704150044895883, 31.599647658133847 ], [ -87.71487578768982, 31.595490272250469 ], [ -87.72560770916806, 31.591349034636178 ], [ -87.736345787951748, 31.58722395981539 ], [ -87.747090002661892, 31.583115062312498 ], [ -87.757840331919681, 31.579022356651951 ], [ -87.768596754346078, 31.574945857358138 ], [ -87.779359248562244, 31.570885578955487 ], [ -87.790127793189228, 31.566841535968408 ], [ -87.800902366848092, 31.562813742921307 ], [ -87.811682948159984, 31.558802214338616 ], [ -87.822469515745937, 31.554806964744735 ], [ -87.833262048227041, 31.550828008664094 ], [ -87.844060524224375, 31.546865360621101 ], [ -87.854864922358999, 31.542919035140148 ], [ -87.865675221252047, 31.538989046745694 ], [ -87.876491399524554, 31.535075409962126 ], [ -87.887313435797623, 31.531178139313852 ], [ -87.898141308692374, 31.527297249325319 ], [ -87.908974996829784, 31.523432754520897 ], [ -87.919814478831043, 31.519584669425043 ], [ -87.930659733317171, 31.51575300856215 ], [ -87.941510738909258, 31.511937786456627 ], [ -87.952367474228424, 31.508139017632921 ], [ -87.963229917895646, 31.504356716615401 ], [ -87.974098048532142, 31.500590897928518 ], [ -87.984971844758917, 31.496841576096674 ], [ -87.995851285197062, 31.493108765644273 ], [ -88.006736348467683, 31.489392481095759 ], [ -88.017627013191785, 31.485692736975512 ], [ -88.028523257990571, 31.482009547807973 ], [ -88.039425061485034, 31.478342928117545 ], [ -88.050332402296249, 31.474692892428639 ], [ -88.061245259045393, 31.471059455265692 ], [ -88.072163610353385, 31.46744263115308 ], [ -88.083087434841474, 31.463842434615263 ], [ -88.094016711130649, 31.460258880176625 ], [ -88.104951417842003, 31.456691982361576 ], [ -88.115891533596667, 31.45314175569457 ], [ -88.126837037015619, 31.449608214699971 ], [ -88.13778790672005, 31.446091373902238 ], [ -88.148744121330992, 31.442591247825764 ], [ -88.159705659469509, 31.439107850994954 ], [ -88.170672499756748, 31.435641197934256 ], [ -88.181644620813699, 31.432191303168043 ], [ -88.192622001261526, 31.428758181220765 ], [ -88.203604619721233, 31.425341846616814 ], [ -88.214592454813953, 31.421942313880614 ], [ -88.225585485160806, 31.418559597536596 ], [ -88.236583689382783, 31.41519371210914 ], [ -88.247587046101003, 31.411844672122683 ], [ -88.258595533936571, 31.408512492101643 ], [ -88.269609131510535, 31.405197186570419 ], [ -88.280627817444014, 31.40189877005345 ], [ -88.29165157035807, 31.39861725707512 ], [ -88.302680368873752, 31.395352662159866 ], [ -88.313714191612178, 31.392104999832096 ], [ -88.324753017194425, 31.388874284616215 ], [ -88.335796824241598, 31.385660531036667 ], [ -88.346845591374702, 31.382463753617834 ], [ -88.357899297214914, 31.379283966884152 ], [ -88.368957920383252, 31.376121185360027 ], [ -88.380021439500794, 31.372975423569869 ], [ -88.391089833188701, 31.369846696038117 ], [ -88.40216308006795, 31.366735017289155 ], [ -88.413241158759689, 31.363640401847409 ], [ -88.424324047884966, 31.360562864237298 ], [ -88.435411726064871, 31.357502418983234 ], [ -88.446504171920537, 31.35445908060964 ], [ -88.457601364072957, 31.351432863640916 ], [ -88.468703281143263, 31.348423782601486 ], [ -88.479809901752532, 31.345431852015757 ], [ -88.490921204521811, 31.342457086408153 ], [ -88.502037168072263, 31.339499500303095 ], [ -88.513157771024908, 31.336559108224982 ], [ -88.524282992000821, 31.333635924698232 ], [ -88.535412809621107, 31.330729964247265 ], [ -88.546547202506829, 31.327841241396495 ], [ -88.557686149279121, 31.324969770670346 ], [ -88.568829628558987, 31.322115566593212 ], [ -88.579977618967547, 31.319278643689518 ], [ -88.591130099125877, 31.316459016483677 ], [ -88.602287047655068, 31.313656699500104 ], [ -88.613448443176225, 31.310871707263235 ], [ -88.624614264310381, 31.308104054297448 ], [ -88.635784489678656, 31.305353755127186 ], [ -88.646959097902069, 31.302620824276847 ], [ -88.658138067601755, 31.299905276270849 ], [ -88.66932137739883, 31.297207125633623 ], [ -88.680509005914288, 31.294526386889562 ], [ -88.69170093176929, 31.291863074563093 ], [ -88.702897133584855, 31.289217203178623 ], [ -88.714097589982075, 31.286588787260573 ], [ -88.725302279582095, 31.283977841333371 ], [ -88.736511181005909, 31.281384379921402 ], [ -88.747724272874649, 31.278808417549097 ], [ -88.758941533809377, 31.276249968740867 ], [ -88.770162942431185, 31.273709048021136 ], [ -88.78138847736119, 31.271185669914317 ], [ -88.7926181172204, 31.268679848944814 ], [ -88.803851840629946, 31.266191599637054 ], [ -88.815089626210863, 31.263720936515437 ], [ -88.826331452584313, 31.261267874104394 ], [ -88.837577298371315, 31.25883242692834 ], [ -88.848827142192945, 31.256414609511673 ], [ -88.86008096267031, 31.254014436378814 ], [ -88.871338738424512, 31.251631922054187 ], [ -88.882600448076587, 31.2492670810622 ], [ -88.893866070247668, 31.246919927927276 ], [ -88.905135583558774, 31.244590477173816 ], [ -88.91640896663101, 31.242278743326235 ], [ -88.927686198085482, 31.239984740908962 ], [ -88.938967256543236, 31.237708484446404 ], [ -88.950252120625422, 31.235449988462992 ], [ -88.961540768953029, 31.233209267483101 ], [ -88.972833180147191, 31.230986336031179 ], [ -88.984129332828999, 31.228781208631634 ], [ -88.995429205619459, 31.226593899808869 ], [ -89.00673277713976, 31.224424424087328 ], [ -89.018040026010922, 31.222272795991394 ], [ -89.029350930854008, 31.220139030045488 ], [ -89.040665470290179, 31.218023140774047 ], [ -89.051983622940412, 31.215925142701451 ], [ -89.063305367425883, 31.213845050352148 ], [ -89.074630682367612, 31.211782878250531 ], [ -89.085959546386704, 31.209738640921032 ], [ -89.097291938104263, 31.207712352888052 ], [ -89.108627836141295, 31.205704028676003 ], [ -89.11996721911899, 31.203713682809319 ], [ -89.131310065658326, 31.201741329812396 ], [ -89.142656354380449, 31.199786984209652 ], [ -89.154006063906436, 31.197850660525521 ], [ -89.165359172857293, 31.195932373284375 ], [ -89.176715659854224, 31.19403213701068 ], [ -89.188075503518206, 31.192149966228811 ], [ -89.199438682470387, 31.190285875463207 ], [ -89.210805175331856, 31.188439879238285 ], [ -89.222174960723621, 31.186611992078436 ], [ -89.233548017266813, 31.18480222850809 ], [ -89.244924323582481, 31.18301060305166 ], [ -89.256303858291759, 31.181237130233555 ], [ -89.267686600015736, 31.179481824578218 ], [ -89.279072527375405, 31.17774470061002 ], [ -89.290461618991912, 31.176025772853407 ], [ -89.301853853486321, 31.174325055832778 ], [ -89.313249209479736, 31.172642564072561 ], [ -89.324647665593233, 31.170978312097162 ], [ -89.336049200447874, 31.169332314431003 ], [ -89.347453792664723, 31.167704585598482 ], [ -89.358861420864912, 31.166095140124028 ], [ -89.370272063669503, 31.164503992532055 ], [ -89.381685699699588, 31.162931157346989 ], [ -89.393102307576214, 31.161376649093217 ], [ -89.404521865920458, 31.159840482295174 ], [ -89.415944353353439, 31.158322671477265 ], [ -89.427369748496247, 31.156823231163916 ], [ -89.438798029969945, 31.155342175879539 ], [ -89.450229176395581, 31.153879520148543 ], [ -89.461663166394274, 31.152435278495332 ], [ -89.473099978587086, 31.151009465444343 ], [ -89.484539591595137, 31.149602095519985 ], [ -89.495981984039503, 31.148213183246675 ], [ -89.507427134541189, 31.146842743148813 ], [ -89.518875021721342, 31.145490789750816 ], [ -89.530325624201069, 31.14415733757712 ], [ -89.541778920601374, 31.142842401152123 ], [ -89.553234889543432, 31.141545995000246 ], [ -89.564693509648237, 31.140268133645893 ], [ -89.576154759536905, 31.139008831613491 ], [ -89.587618617830515, 31.137768103427447 ], [ -89.59908506315017, 31.136545963612182 ], [ -89.610554074116948, 31.135342426692119 ], [ -89.622025629351882, 31.134157507191642 ], [ -89.633499707476091, 31.132991219635201 ], [ -89.644976287110651, 31.131843578547183 ], [ -89.656455346876655, 31.13071459845202 ], [ -89.667936865395205, 31.129604293874138 ], [ -89.679420821287309, 31.128512679337913 ], [ -89.690907193174112, 31.127439769367793 ], [ -89.70239595967665, 31.126385578488176 ], [ -89.713887099416056, 31.125350121223491 ], [ -89.725380591013419, 31.124333412098157 ], [ -89.73687641308976, 31.123335465636558 ], [ -89.748374544266156, 31.122356296363133 ], [ -89.759874963163739, 31.121395918802286 ], [ -89.771377648403558, 31.120454347478443 ], [ -89.782882578606788, 31.119531596916033 ], [ -89.794389732394336, 31.118627681639431 ], [ -89.80589908838742, 31.117742616173075 ], [ -89.81741062520706, 31.116876415041375 ], [ -89.828924321474361, 31.116029092768748 ], [ -89.840440155810441, 31.115200663879627 ], [ -89.851958106836292, 31.114391142898391 ], [ -89.863478153173062, 31.113600544349474 ], [ -89.875000273441813, 31.112828882757288 ], [ -89.886524446263635, 31.112076172646255 ], [ -89.898050650259606, 31.111342428540791 ], [ -89.909578864050786, 31.110627664965289 ], [ -89.921109066258296, 31.109931896444188 ], [ -89.932641235503183, 31.109255137501883 ], [ -89.944175350406539, 31.108597402662806 ], [ -89.955711389589467, 31.107958706451374 ], [ -89.967249331673031, 31.107339063391986 ], [ -89.978789155278292, 31.106738488009061 ], [ -89.990330839026356, 31.106156994827018 ], [ -90.001874361538313, 31.105594598370271 ], [ -90.013419701435225, 31.105051313163244 ], [ -90.024966837338184, 31.104527153730331 ], [ -90.036515747868251, 31.104022134595962 ], [ -90.048066411646516, 31.10353627028454 ], [ -90.059618807294072, 31.103069575320497 ], [ -90.071172913432036, 31.102622064228242 ], [ -90.082728708681415, 31.102193751532184 ], [ -90.094286171663327, 31.101784651756731 ], [ -90.105845280998849, 31.101394779426315 ], [ -90.117406015309086, 31.101024149065342 ], [ -90.128968353215114, 31.100672775198234 ], [ -90.140532273337968, 31.100340672349397 ], [ -90.152097754298765, 31.100027855043244 ], [ -90.163664774718569, 31.099734337804193 ], [ -90.175233313218484, 31.099460135156658 ], [ -90.186803348419616, 31.099205261625073 ], [ -90.198374858942969, 31.098969731733821 ], [ -90.209947823409692, 31.098753560007335 ], [ -90.221522220440832, 31.09855676097003 ], [ -90.23309802865748, 31.098379349146313 ], [ -90.244675226680755, 31.098221339060608 ], [ -90.256253793131691, 31.098082745237324 ], [ -90.267833706631336, 31.097963582200869 ], [ -90.279414945800852, 31.097863864475677 ], [ -90.290997489261272, 31.097783606586145 ], [ -90.302581315633716, 31.097722823056703 ], [ -90.314166403539218, 31.097681528411748 ], [ -90.325752731598868, 31.097659737175707 ], [ -90.337340278433771, 31.097657463872991 ], [ -90.348929022665004, 31.097674723028017 ], [ -90.360518942913671, 31.097711529165203 ], [ -90.372110017800793, 31.097767896808953 ], [ -90.383702225947459, 31.097843840483694 ], [ -90.395295545974818, 31.097939374713828 ], [ -90.406889956503889, 31.098054514023779 ], [ -90.418485436155819, 31.098189272937976 ], [ -90.430081963551601, 31.098343665980796 ], [ -90.441679517312338, 31.098517707676685 ], [ -90.453278076059163, 31.098711412550049 ], [ -90.464877618413141, 31.098924795125303 ], [ -90.476478122995317, 31.099157869926859 ], [ -90.488079568426812, 31.099410651479136 ], [ -90.499681933328674, 31.09968315430654 ], [ -90.511285196321992, 31.099975392933494 ], [ -90.522889336027902, 31.100287381884428 ], [ -90.534494331067407, 31.100619135683726 ], [ -90.546100160061627, 31.100970668855819 ], [ -90.557706801631625, 31.101341995925118 ], [ -90.569314234398519, 31.10173313141604 ], [ -90.580922436983371, 31.102144089853006 ], [ -90.592531388007231, 31.102574885760422 ], [ -90.604141066091231, 31.103025533662699 ], [ -90.615751449856418, 31.103496048084263 ], [ -90.627362517923871, 31.103986443549523 ], [ -90.638974248914721, 31.104496734582902 ], [ -90.650586621449989, 31.1050269357088 ], [ -90.662199614150808, 31.10557706145164 ], [ -90.673813205638197, 31.106147126335834 ], [ -90.685427374533276, 31.106737144885798 ], [ -90.697042099457164, 31.107347131625968 ], [ -90.70865735903088, 31.107977101080721 ], [ -90.72027313187553, 31.108627067774492 ], [ -90.731889396612189, 31.109297046231696 ], [ -90.743506131861935, 31.109987050976741 ], [ -90.755123316245886, 31.110697096534057 ], [ -90.766740928385076, 31.111427197428039 ], [ -90.77835894690061, 31.112177368183112 ], [ -90.789977350413537, 31.112947623323688 ], [ -90.801596117545031, 31.113737977374193 ], [ -90.813215226916071, 31.114548444859025 ], [ -90.824834657147761, 31.115379040302606 ], [ -90.836454386861234, 31.116229778229354 ], [ -90.848074394677496, 31.11710067316368 ], [ -90.859694659217709, 31.117991739630007 ], [ -90.871315159102892, 31.118902992152734 ], [ -90.882935872954135, 31.119834445256281 ], [ -90.894556779392545, 31.120786113465076 ], [ -90.906177857039182, 31.121758011303513 ], [ -90.917799084515195, 31.122750153296035 ], [ -90.929420440441532, 31.123762553967026 ], [ -90.94104190343937, 31.12479522784092 ], [ -90.952663452129798, 31.125848189442127 ], [ -90.964285065133822, 31.126921453295051 ], [ -90.975906721072633, 31.128015033924139 ], [ -90.987528398567207, 31.129128945853768 ], [ -90.999150076238678, 31.130263203608369 ], [ -91.010771732708122, 31.131417821712361 ], [ -91.022393346596616, 31.132592814690156 ], [ -91.034014896525264, 31.133788197066171 ], [ -91.0456363611151, 31.135003983364815 ], [ -91.057257718987216, 31.136240188110495 ], [ -91.068878948762745, 31.137496825827643 ], [ -91.080500029062691, 31.138773911040669 ], [ -91.092120938508231, 31.140071458273987 ], [ -91.10374165572037, 31.141389482052009 ], [ -91.115362159320213, 31.142727996899147 ], [ -91.126982427928809, 31.144087017339821 ], [ -91.13860244016729, 31.145466557898448 ], [ -91.150222174656761, 31.146866633099446 ], [ -91.161841610018215, 31.148287257467221 ], [ -91.173460724872783, 31.149728445526183 ], [ -91.185079497841571, 31.151190211800756 ], [ -91.196697907545584, 31.152672570815348 ], [ -91.208315932605998, 31.154175537094396 ], [ -91.219933551643834, 31.155699125162293 ], [ -91.231550743280181, 31.157243349543453 ], [ -91.24316748613613, 31.158808224762296 ], [ -91.254783758832744, 31.160393765343233 ], [ -91.26639953999117, 31.161999985810702 ], [ -91.278014808232399, 31.163626900689088 ], [ -91.289629542177565, 31.165274524502813 ], [ -89.560376151675015, 46.036201816787454 ] ] ] } }
]
}
