{
    "type": "FeatureCollection",
    "features": [
        {
            "type": "Feature",
            "properties": {
                "Sector": 1
            },
            "geometry": {
                "coordinates": [
                    [
                        [
                            -97.64114578527062,
                            30.131729942347818
                        ],
                        [
                            -97.64108025005127,
                            30.131681982608484
                        ],
                        [
                            -97.64091893258822,
                            30.131841848315645
                        ],
                        [
                            -97.64099455014903,
                            30.131888354654592
                        ],
                        [
                            -97.64114578527062,
                            30.131729942347818
                        ]
                    ]
                ],
                "type": "Polygon"
            },
            "id": 1
        },
        {
            "type": "Feature",
            "properties": {
                "Sector": 2
            },
            "geometry": {
                "coordinates": [
                    [
                        [
                            -97.6424618432946,
                            30.13170703561788
                        ],
                        [
                            -97.6426421426842,
                            30.131508571150746
                        ],
                        [
                            -97.64253396305043,
                            30.131437690887196
                        ],
                        [
                            -97.64235694183155,
                            30.131630485084983
                        ],
                        [
                            -97.6424618432946,
                            30.13170703561788
                        ]
                    ]
                ],
                "type": "Polygon"
            },
            "id": 2
        },
        {
            "type": "Feature",
            "properties": {
                "Sector": 3
            },
            "geometry": {
                "coordinates": [
                    [
                        [
                            -97.6406162331772,
                            30.130465208531433
                        ],
                        [
                            -97.64059656415287,
                            30.13022988337333
                        ],
                        [
                            -97.6404359337876,
                            30.13025256534071
                        ],
                        [
                            -97.6405178880556,
                            30.13049072568353
                        ],
                        [
                            -97.6406162331772,
                            30.130465208531433
                        ]
                    ]
                ],
                "type": "Polygon"
            },
            "id": 3
        }
    ]
}