{
    "type": "FeatureCollection",
    "features": [
        {
            "type": "Feature",
            "properties": {
                "Sector": 1
            },
            "geometry": {
                "coordinates": [
                    [
                        [
                            -97.64114578527062,
                            30.131729942347818
                        ],
                        [
                            -97.64108025005127,
                            30.131681982608484
                        ],
                        [
                            -97.64091893258822,
                            30.131841848315645
                        ],
                        [
                            -97.64099455014903,
                            30.131888354654592
                        ],
                        [
                            -97.64114578527062,
                            30.131729942347818
                        ]
                    ]
                ],
                "type": "Polygon"
            },
            "id": 1
        },
        {
            "type": "Feature",
            "properties": {
                "Sector": 2
            },
            "geometry": {
                "coordinates": [
                    [
                        [
                            -97.6424618432946,
                            30.13170703561788
                        ],
                        [
                            -97.6426421426842,
                            30.131508571150746
                        ],
                        [
                            -97.64253396305043,
                            30.131437690887196
                        ],
                        [
                            -97.64235694183155,
                            30.131630485084983
                        ],
                        [
                            -97.6424618432946,
                            30.13170703561788
                        ]
                    ]
                ],
                "type": "Polygon"
            },
            "id": 2
        },
        {
            "type": "Feature",
            "properties": {
                "Sector": 3
            },
            "geometry": {
                "coordinates": [
                    [
                        [
                            -97.6406162331772,
                            30.130465208531433
                        ],
                        [
                            -97.64059656415287,
                            30.13022988337333
                        ],
                        [
                            -97.6404359337876,
                            30.13025256534071
                        ],
                        [
                            -97.6405178880556,
                            30.13049072568353
                        ],
                        [
                            -97.6406162331772,
                            30.130465208531433
                        ]
                    ]
                ],
                "type": "Polygon"
            },
            "id": 3
        },
        {
            "type": "Feature",
            "properties": {},
            "geometry": {
                "coordinates": [
                    [
                        [
                            -90.47207716393687,
                            38.8253301412777
                        ],
                        [
                            -90.47208739142205,
                            38.825212615635394
                        ],
                        [
                            -90.47205415209531,
                            38.825057242455756
                        ],
                        [
                            -90.47193397914393,
                            38.824949676209
                        ],
                        [
                            -90.47165528017165,
                            38.824931748485625
                        ],
                        [
                            -90.47144050298203,
                            38.82506919425103
                        ],
                        [
                            -90.47119248646527,
                            38.82614683953136
                        ],
                        [
                            -90.47126407886192,
                            38.82632412157312
                        ],
                        [
                            -90.47138425181332,
                            38.82639184718073
                        ],
                        [
                            -90.4715018678931,
                            38.82643168574336
                        ],
                        [
                            -90.47170130385516,
                            38.82643168574336
                        ],
                        [
                            -90.47192119478714,
                            38.82627631522345
                        ],
                        [
                            -90.47207716393687,
                            38.8253301412777
                        ]
                    ]
                ],
                "type": "Polygon"
            }
        }
    ]
}